{"type":"FeatureCollection", "features": [
{"type":"Feature","geometry":{"type":"Polygon","coordinates":[[[32.7727018,45.8266419],[33.5407189,46.0120312],[33.6467708,46.22958],[34.320021,46.0682092],[34.4762212,45.9441393],[34.628541,45.9864034],[34.8021689,45.9006479],[34.7990874,45.8104643],[34.9597746,45.7565682],[35.2334204,45.7917299],[35.1509695,45.9315235],[35.3273733,45.9852651],[35.4680391,46.1464862],[35.2780627,46.264581],[35.0720342,46.2995725],[35.0546771,46.4818658],[34.7232991,46.5814666],[34.7461772,46.6832188],[34.6252257,46.723972],[34.7504856,46.7578954],[34.8046826,46.8825274],[34.5672697,47.0244915],[34.5121847,47.3350429],[34.2935203,47.2736457],[34.2426886,47.4338649],[34.1394646,47.4772499],[33.6436096,47.4845268],[33.5803214,47.600194],[33.3142543,47.4825445],[33.2334173,47.5773653],[33.0926838,47.5788322],[33.1378337,47.4195283],[33.0715543,47.4124492],[33.0667949,47.4749215],[33.0359379,47.3911547],[33.1216126,47.3895899],[33.1052117,47.280462],[33.1836885,47.2380285],[32.9178741,47.1434371],[33.0269084,47.0396692],[33.1050252,47.1366073],[33.1557081,47.1174531],[33.0224893,46.9727807],[32.9496959,47.0031886],[32.9798654,46.9336997],[32.8414564,46.900036],[32.9491152,46.8579487],[32.7013967,46.8207644],[32.5442811,46.8831729],[32.5311826,46.8231376],[32.3415854,46.7954461],[32.2275364,46.8452028],[32.2186855,46.7713054],[32.05715,46.7446436],[32.0867801,46.6834813],[31.9300896,46.652885],[31.7974278,46.3490392],[31.1590964,46.4096818],[31.2372722,46.4031776],[31.2654363,46.217633],[31.4593257,46.0764938],[32.7727018,45.8266419]]]},"properties":{"@location_uid":23,"@id":"relation/71022","ISO3166-2":"UA-65","admin_level":"4","boundary":"administrative","katotth":"UA65000000000030969","koatuu":"6500000000","name":"Херсонська область","name:ar":"خيرسون أوبلاست","name:az":"Xerson vilayəti","name:be":"Херсонская вобласць","name:be-tarask":"Хэрсонская вобласьць","name:bg":"Херсонска област","name:ca":"Província de Kherson","name:crh":"Herson vilâyeti","name:cs":"Chersonská oblast","name:de":"Oblast Cherson","name:diq":"Xerson","name:en":"Kherson Oblast","name:eo":"Ĥersona provinco","name:es":"Óblast de Jersón","name:et":"Hersoni oblast","name:eu":"Khersongo oblasta","name:fa":"استان خرسون","name:fi":"Hersonin alue","name:fr":"Oblast de Kherson","name:ga":"Cúige Kherson","name:hr":"Hersonska oblast","name:hu":"Herszoni terület","name:hy":"Խերսոնի մարզ","name:id":"Oblast Kherson","name:it":"Oblast' di Cherson","name:ja":"ヘルソン州","name:ka":"ხერსონის ოლქი","name:ko":"헤르손 주","name:lt":"Chersono sritis","name:lv":"Hersonas apgabals","name:mk":"Херсонска област","name:mr":"खेर्सन ओब्लास्त","name:ms":"Oblast Kherson","name:nan":"Xerson séng","name:nl":"Oblast Cherson","name:nn":"Kherson oblast","name:no":"Kherson oblast","name:os":"Херсоны облæст","name:pl":"Obwód chersoński","name:pnb":"خیرسون اوبلاست","name:pt":"Oblast de Kherson","name:ro":"Regiunea Herson","name:ru":"Херсонская область","name:rue":"Херсоньска область","name:sco":"Kherson Oblast","name:sh":"Hersonska oblast","name:sk":"Chersonská oblasť","name:sr":"Херсонска област","name:sv":"Cherson oblast","name:szl":"Chersůński uobwůd","name:tr":"Herson Oblastı","name:uk":"Херсонська область","name:vi":"Kherson (tỉnh)","name:war":"Kherson Oblast","name:zh":"赫尔松州","place":"state","ref":"ХРС","ref:en":"KHE","timezone":"Europe/Kyiv","type":"boundary","wikidata":"Q163271","wikipedia":"uk:Херсонська область"},"id":"relation/71022"},
{"type":"Feature","geometry":{"type":"Polygon","coordinates":[[[24.0981892,50.6374365],[24.5306178,50.5515668],[24.7148915,50.3428563],[24.9368321,50.3457144],[24.9406026,50.3892649],[25.1127372,50.2872511],[25.2099672,50.3810878],[25.0841286,50.4753845],[25.1514629,50.4664204],[25.1222643,50.5537674],[25.2961779,50.539418],[25.2919757,50.6306207],[25.4061409,50.6116682],[25.3793258,50.6906481],[25.459872,50.6621519],[25.6067247,50.7175583],[25.6942632,50.7248322],[25.829291,50.6197402],[25.9024577,50.8317641],[26.0395822,50.8417669],[25.9668209,50.9569366],[26.1072604,51.0052074],[25.9409768,51.0844987],[26.0655041,51.1792942],[25.8310733,51.3870922],[25.694955,51.3756698],[25.5554116,51.5007249],[25.5986634,51.5809722],[25.5299224,51.6311051],[25.6410946,51.6817479],[25.7086476,51.8946784],[25.592838,51.9245265],[25.1913842,51.969265],[24.9340147,51.8915723],[24.3874583,51.8818812],[24.3196933,51.7511232],[23.9965063,51.5800932],[23.7827115,51.6675154],[23.605894,51.6208437],[23.7029331,51.4195452],[23.6484099,51.2874239],[23.8692694,51.1503124],[23.9703809,50.9502985],[24.1455976,50.8693076],[23.9574523,50.7945291],[24.0981892,50.6374365]]]},"properties":{"@location_uid":4,"@id":"relation/71064","ISO3166-2":"UA-07","admin_level":"4","boundary":"administrative","flag":"http://upload.wikimedia.org/wikipedia/commons/5/52/Volyn_flag.svg","is_in:country":"Ukraine","is_in:country_code":"UA","katotth":"UA07000000000024379","koatuu":"0700000000","name":"Волинська область","name:ar":"فولين أوبلاست","name:be":"Валынская вобласць","name:be-tarask":"Валынская вобласьць","name:bg":"Волинска област","name:bs":"Volinjska oblast","name:ca":"Província de Volínia","name:crh":"Volın vilâyeti","name:cs":"Volyňská oblast","name:cv":"Волынь облаçĕ","name:de":"Oblast Wolhynien","name:en":"Volyn Oblast","name:eo":"Volina provinco","name:es":"Óblast de Volinia","name:et":"Volõõnia oblast","name:eu":"Voliniako oblasta","name:fa":"استان ولین","name:fi":"Volynian alue","name:fr":"Oblast de Volhynie","name:hr":"Volinjska oblast","name:hu":"Volinyi terület","name:hy":"Վոլինի մարզ","name:id":"Oblast Volyn","name:it":"Oblast' di Volinia","name:ja":"ヴォルィーニ州","name:ka":"ვოლინის ოლქი","name:ko":"볼린 주","name:lt":"Voluinės sritis","name:lv":"Volīnijas apgabals","name:mk":"Волинска област","name:mr":"व्होलिन ओब्लास्त","name:ms":"Oblast Volyn","name:nan":"Volyn séng","name:nl":"Oblast Wolynië","name:nn":"Volyn oblast","name:no":"Volyn oblast","name:pl":"Obwód wołyński","name:pnb":"ولین اوبلاست","name:pt":"Oblast de Volínia","name:ro":"Regiunea Volîn","name:ru":"Волынская область","name:rue":"Волиньска область","name:sco":"Volyn Oblast","name:sh":"Volinjska oblast","name:sk":"Volynská oblasť","name:sr":"Волињска област","name:sv":"Volyn oblast","name:szl":"Wołyński uobwůd","name:tr":"Volın Oblastı","name:uk":"Волинська область","name:vi":"Volyn (tỉnh)","name:war":"Volyn Oblast","name:xmf":"ვოლინიშ ოლქი","name:yi":"וואהלינער גובערניע","name:zh":"沃倫州","place":"state","ref":"ВОЛ","ref:en":"VOL","timezone":"Europe/Kyiv","type":"boundary","wikidata":"Q167859","wikipedia":"uk:Волинська область"},"id":"relation/71064"},
{"type":"Feature","geometry":{"type":"Polygon","coordinates":[[[27.1963416,50.5620649],[27.2753727,50.7210508],[27.1998969,51.0001324],[27.3258447,51.0422538],[27.4738669,51.2372421],[27.5036287,51.4519778],[27.6137924,51.4031012],[27.5788379,51.4785298],[27.6688082,51.5178441],[27.6883782,51.6129441],[27.2403601,51.6018071],[27.2023541,51.7732655],[26.9482487,51.7360754],[25.9990596,51.9330363],[25.592838,51.9245265],[25.7086476,51.8946784],[25.6410946,51.6817479],[25.5299224,51.6311051],[25.5986634,51.5809722],[25.5554116,51.5007249],[25.694955,51.3756698],[25.8310733,51.3870922],[26.0655041,51.1792942],[25.9409768,51.0844987],[26.1072604,51.0052074],[25.9668209,50.9569366],[26.0395822,50.8417669],[25.9024577,50.8317641],[25.829291,50.6197402],[25.6942632,50.7248322],[25.6067247,50.7175583],[25.459872,50.6621519],[25.3793258,50.6906481],[25.4061409,50.6116682],[25.2919757,50.6306207],[25.2961779,50.539418],[25.1222643,50.5537674],[25.1514629,50.4664204],[25.0841286,50.4753845],[25.2099672,50.3810878],[25.1127372,50.2872511],[25.2049392,50.2793035],[25.1972475,50.1310292],[25.3466915,50.0040452],[25.4890336,50.101817],[25.4760526,50.1661423],[26.220969,50.2668879],[26.2204692,50.179704],[26.5032636,50.2628235],[26.8272447,50.5230512],[26.9828002,50.5227292],[27.1179282,50.5947282],[27.1963416,50.5620649]]]},"properties":{"@location_uid":5,"@id":"relation/71236","ISO3166-2":"UA-56","admin_level":"4","boundary":"administrative","flag":"http://upload.wikimedia.org/wikipedia/commons/3/3c/Flag_of_Rivne_Oblast.svg","is_in:country_code":"UA","katotth":"UA56000000000066151","koatuu":"5600000000","name":"Рівненська область","name:ar":"ريفنا أوبلاست","name:be":"Ровенская вобласць","name:be-tarask":"Ровенская вобласьць","name:bg":"Ровенска област","name:ca":"Província de Rivne","name:crh":"Rivne vilâyeti","name:cs":"Rovenská oblast","name:de":"Oblast Riwne","name:en":"Rivne Oblast","name:eo":"Rivna provinco","name:es":"Óblast de Rivne","name:et":"Rivne oblast","name:eu":"Rivneko oblasta","name:fa":"استان ریونه","name:fi":"Rivnen alue","name:fr":"Oblast de Rivne","name:hr":"Rivnenska oblast","name:hy":"Ռովնոյի մարզ","name:id":"Oblast Rivne","name:it":"Oblast' di Rivne","name:ja":"リウネ州","name:ka":"როვნოს ოლქი","name:ko":"리우네 주","name:lt":"Rivnės sritis","name:lv":"Rivnes apgabals","name:mk":"Ровенска област","name:mr":"रिव्ह्ने ओब्लास्त","name:ms":"Oblast Rivne","name:nan":"Rivne séng","name:nl":"Oblast Rivne","name:nn":"Rivne oblast","name:no":"Rivne oblast","name:pl":"Obwód rówieński","name:pnb":"ریون اوبلاست","name:pt":"Oblast de Rivne","name:ro":"Regiunea Rivne","name:ru":"Ривненская область","name:rue":"Рівненьска область","name:sco":"Rivne Oblast","name:sh":"Rivnenska oblast","name:sk":"Rivnenská oblasť","name:sr":"Ривањска област","name:sv":"Rivne oblast","name:tr":"Rivne Oblastı","name:uk":"Рівненська область","name:vi":"Rivne (tỉnh)","name:war":"Rivne Oblast","name:zh":"羅夫諾州","place":"state","ref":"РІВ","ref:en":"RIV","timezone":"Europe/Kyiv","type":"boundary","wikidata":"Q174187","wikipedia":"uk:Рівненська область"},"id":"relation/71236"},
{"type":"Feature","geometry":{"type":"Polygon","coordinates":[[[27.8178686,49.7341971],[28.2497549,49.8153052],[28.3790964,49.7803565],[28.4217989,49.8248963],[28.569709,49.7738821],[28.8730964,49.8888985],[29.0019049,49.7392589],[28.993628,49.5972528],[29.5052255,49.6491931],[29.4386888,49.8055263],[29.7352238,49.9443586],[29.6469242,50.1065546],[29.6924045,50.3232406],[29.5602398,50.4225009],[29.4425755,50.4154229],[29.5108425,50.4707502],[29.4447373,50.6210648],[29.5976293,50.7291076],[29.4719593,50.7735966],[29.5473784,50.8139025],[29.4114766,50.9489313],[29.5117379,51.060619],[29.3053288,51.1580407],[29.2675489,51.2648114],[29.3680535,51.2894174],[29.3591582,51.3854941],[29.1175363,51.661638],[28.9993779,51.5735218],[28.8196328,51.5588208],[28.7529308,51.4145633],[28.6478955,51.572694],[28.4674425,51.5931192],[28.352452,51.5399722],[28.2593843,51.6811359],[28.0494227,51.5667451],[27.9457882,51.5581841],[27.9749185,51.5940535],[27.8454039,51.6291106],[27.7636482,51.474494],[27.6688082,51.5178441],[27.5788379,51.4785298],[27.6137924,51.4031012],[27.5036287,51.4519778],[27.4738669,51.2372421],[27.3258447,51.0422538],[27.1998969,51.0001324],[27.2753727,50.7210508],[27.1963416,50.5620649],[27.3013301,50.493127],[27.2483691,50.3927607],[27.3155756,50.3317396],[27.665003,50.1933799],[27.6154447,50.0861911],[27.6811811,50.0340492],[27.546477,50.0115817],[27.546772,49.903453],[27.8178686,49.7341971]]]},"properties":{"@location_uid":10,"@id":"relation/71245","ISO3166-2":"UA-18","admin_level":"4","boundary":"administrative","flag":"http://upload.wikimedia.org/wikipedia/commons/6/69/Flag_of_Zhytomyr_Oblast.svg","is_in:country":"Ukraine","is_in:country_code":"UA","katotth":"UA18000000000041385","koatuu":"1800000000","name":"Житомирська область","name:ar":"زيتومير أوبلاست","name:be":"Жытомірская вобласць","name:be-tarask":"Жытомірская вобласьць","name:bg":"Житомирска област","name:bs":"Žitomirska oblast","name:ca":"Província de Jytómyr","name:crh":"Jıtomır vilâyeti","name:cs":"Žytomyrská oblast","name:cu":"Житомирьска область","name:cv":"Житомир облаçĕ","name:de":"Oblast Schytomyr","name:en":"Zhytomyr Oblast","name:eo":"Ĵitomira provinco","name:es":"Óblast de Zhytomyr","name:et":"Žõtomõri oblast","name:eu":"Zhytomyrko oblasta","name:fa":"استان ژیتومیر","name:fi":"Žytomyrin alue","name:fr":"Oblast de Jytomyr","name:hr":"Žitomirska oblast","name:hy":"Ժիտոմիրի մարզ","name:id":"Oblast Zhytomyr","name:it":"Oblast' di Žytomyr","name:ja":"ジトームィル州","name:ka":"ჟიტომირის ოლქი","name:ko":"지토미르 주","name:lt":"Žytomyro sritis","name:lv":"Žitomiras apgabals","name:mk":"Житомирска област","name:mr":"झितोमिर ओब्लास्त","name:nan":"Zhytomyr séng","name:nl":"Oblast Zjytomyr","name:nn":"Zjytomyr oblast","name:no":"Zjytomyr oblast","name:pl":"Obwód żytomierski","name:pnb":"ژیتومیر اوبلاست","name:pt":"Oblast de Jitomir","name:ro":"Regiunea Jîtomîr","name:ru":"Житомирская область","name:rue":"Жытомирьска область","name:sco":"Zhytomyr Oblast","name:sh":"Žitomirska oblast","name:sk":"Žytomyrská oblasť","name:sr":"Житомирска област","name:sv":"Zjytomyr oblast","name:tr":"Jitomir Oblastı","name:uk":"Житомирська область","name:vi":"Zhytomyr (tỉnh)","name:war":"Zhytomyr Oblast","name:yi":"זשיטאמירער גובערניע","name:zh":"日托米爾州","place":"state","ref":"ЖИТ","ref:en":"ZHI","source:geometry":"http://map.land.gov.ua/kadastrova-karta","timezone":"Europe/Kyiv","type":"boundary","wikidata":"Q40637","wikipedia":"uk:Житомирська область"},"id":"relation/71245"},
{"type":"Feature","geometry":{"type":"Polygon","coordinates":[[[29.5052255,49.6491931],[29.5952597,49.4431365],[29.5028911,49.3699817],[29.7365532,49.2283612],[29.7600152,49.1798318],[29.8830054,49.186027],[30.0264808,49.3343837],[30.1123291,49.2703198],[30.2004215,49.328162],[30.1897437,49.2750853],[30.3758619,49.2364118],[30.4734081,49.3650516],[30.5473941,49.3266149],[30.6071149,49.3703037],[30.9090149,49.3586178],[31.1538449,49.5554094],[31.2078722,49.852244],[31.3801579,49.907259],[31.2907657,49.9786275],[31.4367112,49.9841657],[31.5023639,49.8433268],[31.580868,49.9067395],[31.7171397,49.8522301],[31.9797333,50.038701],[31.9040163,50.0560697],[31.9341184,50.1584553],[32.118106,50.2284028],[32.1434038,50.3484349],[31.9634825,50.4855274],[32.0633663,50.5408114],[31.9520024,50.5442145],[31.8587741,50.6320519],[31.6303502,50.5208492],[31.3304253,50.5010433],[31.1658194,50.5894873],[31.2182611,50.69702],[31.1268068,50.7744043],[30.7399619,50.7713411],[30.7716823,50.8743762],[30.6008304,51.0274558],[30.4993132,51.0191359],[30.5386247,51.2626864],[30.1801708,51.5125224],[29.7973282,51.4417141],[29.7167282,51.5299441],[29.5387982,51.4824741],[29.4956883,51.3967677],[29.3591582,51.3854941],[29.3680535,51.2894174],[29.2675489,51.2648114],[29.3053288,51.1580407],[29.5117379,51.060619],[29.4114766,50.9489313],[29.5473784,50.8139025],[29.4719593,50.7735966],[29.5976293,50.7291076],[29.4447373,50.6210648],[29.5108425,50.4707502],[29.4425755,50.4154229],[29.5602398,50.4225009],[29.6924045,50.3232406],[29.6469242,50.1065546],[29.7352238,49.9443586],[29.4386888,49.8055263],[29.5052255,49.6491931]],[[30.3683029,50.4225715],[30.2361453,50.4268097],[30.3072295,50.5704924],[30.4631088,50.5843452],[30.5656585,50.5157585],[30.719819,50.5908142],[30.8158409,50.5639723],[30.7376052,50.498925],[30.8187002,50.3943757],[30.6113333,50.3464106],[30.6435516,50.2260905],[30.3683029,50.4225715]]]},"properties":{"@location_uid":14,"@id":"relation/71248","ISO3166-2":"UA-32","admin_level":"4","alt_name:ca":"Província de Kíev","alt_name:de":"Oblast Kiew","alt_name:eo":"Kieva provinco","alt_name:es":"Óblast de Kiev","alt_name:et":"Kõjivi oblast","alt_name:fr":"Oblast de Kyiv","alt_name:haw":"Kiev","alt_name:it":"Oblast' di Kiev","alt_name:ko":"크이우 주","alt_name:pt":"Oblast de Kiev","alt_name:sh":"Kijevska oblast","alt_name:tr":"Kıyiv Oblastı","alt_name:vi":"Tỉnh Kiev","boundary":"administrative","flag":"http://upload.wikimedia.org/wikipedia/commons/b/be/Flag_of_Kiev_Oblast.svg","is_in:country":"Ukraine","is_in:country_code":"UA","katotth":"UA32000000000030281","koatuu":"3200000000","name":"Київська область","name:af":"Kyiv-oblast","name:ar":"كييف أوبلاست","name:az":"Kıyiv vilayəti","name:be":"Кіеўская вобласць","name:be-tarask":"Кіеўская вобласьць","name:bg":"Киевска област","name:bs":"Kijevska oblast","name:ca":"Província de Kíiv","name:crh":"Kiyev vilâyeti","name:cs":"Kyjevská oblast","name:cv":"Кейӳ облаçĕ","name:de":"Oblast Kyjiw","name:en":"Kyiv Oblast","name:eo":"Kijivo provinco","name:es":"Óblast de Kyiv","name:et":"Kiievi oblast","name:eu":"Kieveko oblasta","name:fa":"استان کیف","name:fi":"Kiovan alue","name:fr":"Oblast de Kiev","name:haw":"Kyiv","name:hr":"Kijevska oblast","name:hy":"Կիևի մարզ","name:id":"Oblast Kiev","name:it":"Oblast' di Kyiv","name:ja":"キエフ州","name:ka":"კიევის ოლქი","name:ko":"키이우 주","name:lt":"Kijevo sritis","name:lv":"Kijevas apgabals","name:mk":"Киевска област","name:mr":"क्यीव ओब्लास्त","name:ms":"Oblast Kiev","name:nan":"Kyyiv séng","name:nl":"Oblast Kiev","name:nn":"Kiev oblast","name:no":"Kiev oblast","name:os":"Киевы облæст","name:pl":"Obwód kijowski","name:pnb":"کیف اوبلاست","name:pt":"Oblast de Kyiv","name:ro":"Regiunea Kiev","name:ru":"Киевская область","name:rue":"Київска область","name:sco":"Kiev Oblast","name:sh":"Kyivska oblast","name:sk":"Kyjevská oblasť","name:sr":"Кијевска област","name:sv":"Kiev oblast","name:tr":"Kıyiv Oblastı","name:uk":"Київська область","name:vi":"Tỉnh Kyiv","name:war":"Kiev Oblast","name:xmf":"კიევიშ ოლქი","name:zh":"基辅州","name:zh-Hans":"基辅州","name:zh-Hant":"基輔州","old_name:ko":"키예프 주","place":"state","ref":"КИЇ","ref:en":"KYI","source:geometry":"http://map.land.gov.ua/kadastrova-karta","timezone":"Europe/Kyiv","type":"boundary","wikidata":"Q170036","wikipedia":"uk:Київська область"},"id":"relation/71248"},
{"type":"Feature","geometry":{"type":"Polygon","coordinates":[[[32.1434038,50.3484349],[32.2545921,50.346965],[32.3389953,50.4276212],[32.526394,50.345716],[32.7932802,50.3466702],[33.0648556,50.5197576],[33.1360216,50.7105702],[33.2402392,50.7323541],[33.1563345,50.7922566],[33.2003096,50.9616213],[33.0403278,50.9921875],[33.0693178,51.0691977],[32.9426042,51.0896908],[33.0688213,51.2550329],[33.0169524,51.3960496],[33.1329556,51.3822418],[33.2220368,51.5801704],[33.0793571,51.7732541],[33.1234764,51.8635242],[33.3942383,51.9545281],[33.3172152,52.0318981],[33.5000385,52.0383243],[33.3102427,52.1848036],[33.4287445,52.3456787],[33.1886614,52.3795277],[32.9009789,52.24527],[32.3765776,52.337586],[32.3679031,52.1464958],[32.096163,52.0336141],[31.9165699,52.0422053],[31.9609904,52.0747176],[31.8676203,52.1105049],[31.4319753,52.1434018],[31.2529956,52.0422288],[31.1399176,52.1031134],[30.9497126,52.0896803],[30.5065153,51.6006183],[30.6556975,51.376181],[30.5386247,51.2626864],[30.4993132,51.0191359],[30.6008304,51.0274558],[30.7716823,50.8743762],[30.7399619,50.7713411],[31.1268068,50.7744043],[31.2182611,50.69702],[31.1658194,50.5894873],[31.3304253,50.5010433],[31.6303502,50.5208492],[31.8587741,50.6320519],[31.9520024,50.5442145],[32.0633663,50.5408114],[31.9634825,50.4855274],[32.1434038,50.3484349]]]},"properties":{"@location_uid":25,"@id":"relation/71249","ISO3166-2":"UA-74","admin_level":"4","alt_name:ro":"Regiunea Cernigov","boundary":"administrative","flag":"http://upload.wikimedia.org/wikipedia/commons/f/f7/Flag_of_Chernihiv_Oblast.svg","katotth":"UA74000000000025378","koatuu":"7400000000","name":"Чернігівська область","name:ar":"تشرنيهيف أوبلاست","name:az":"Çerniqiv vilayəti","name:be":"Чарнігаўская вобласць","name:be-tarask":"Чарнігаўская вобласьць","name:bg":"Черниговска област","name:ca":"Província de Txerníhiv","name:crh":"Çernigiv vilâyeti","name:cs":"Černihivská oblast","name:de":"Oblast Tschernihiw","name:en":"Chernihiv Oblast","name:eo":"Ĉernihiva provinco","name:es":"Óblast de Chernihiv","name:et":"Tšernihivi oblast","name:eu":"Txernihiveko oblasta","name:fa":"استان چرنیهیو","name:fi":"Tšernihivin alue","name:fr":"Oblast de Tchernihiv","name:he":"מחוז צ'רניהיב","name:hr":"Černihivska oblast","name:hu":"Csernyihivi terület","name:hy":"Չեռնիգովի մարզ","name:id":"Oblast Chernihiv","name:it":"Oblast' di Černihiv","name:ja":"チェルニーヒウ州","name:ka":"ჩერნიგოვის ოლქი","name:ko":"체르니히우 주","name:lt":"Černihivo sritis","name:lv":"Čerņihivas apgabals","name:mk":"Черниговска област","name:mr":"चेर्निहिव्ह ओब्लास्त","name:nan":"Chernigiv séng","name:nl":"Oblast Tsjernihiv","name:nn":"Tsjernihiv oblast","name:no":"Tsjernihiv oblast","name:os":"Черниговы облæст","name:pl":"Obwód czernihowski","name:pnb":"چرنیہیف اوبلاست","name:pt":"Oblast de Tchernigiv","name:ro":"Regiunea Cernihiv","name:ru":"Черниговская область","name:rue":"Чернїгівска область","name:sco":"Chernihiv Oblast","name:sh":"Černigivska oblast","name:sk":"Černihivská oblasť","name:sv":"Tjernihiv oblast","name:szl":"Czerńihowski uobwůd","name:tr":"Çernihiv Oblastı","name:uk":"Чернігівська область","name:vi":"Chernihiv (tỉnh)","name:war":"Chernihiv Oblast","name:xmf":"ჩერნიგოვიშ ოლქი","name:zh":"切爾尼戈夫州","name:zh-Hans":"切尔尼戈夫州","name:zh-Hant":"切爾尼戈夫州","old_name:az":"Çerniqov vilayəti","old_name:lt":"Černigovo sritis","old_name:lv":"Čerņigovas apgabals","old_name:pt":"Oblast de Chernigov","old_name:ro":"Regiunea Cernigău","old_name:tr":"Çernigov Oblastı","place":"state","ref":"ЧРГ","ref:en":"CRH","timezone":"Europe/Kyiv","type":"boundary","wikidata":"Q167874","wikipedia":"uk:Чернігівська область"},"id":"relation/71249"},
{"type":"Feature","geometry":{"type":"Polygon","coordinates":[[[35.6580016,50.3511483],[35.3904639,50.5800052],[35.392902,50.6500043],[35.4961851,50.6788724],[35.3257629,50.9468253],[35.4061621,51.0482286],[35.1901586,51.0539591],[35.119607,51.2315033],[34.7165421,51.1714211],[34.6626432,51.2474418],[34.2304829,51.265097],[34.3386644,51.3560818],[34.2209449,51.4170156],[34.3075867,51.519417],[34.0803623,51.6662788],[34.4228533,51.7223269],[34.4155526,51.8257791],[34.0967426,52.0048487],[34.1165103,52.1410444],[33.8364718,52.3613887],[33.5598732,52.3022553],[33.4287445,52.3456787],[33.3102427,52.1848036],[33.5000385,52.0383243],[33.3172152,52.0318981],[33.3942383,51.9545281],[33.1234764,51.8635242],[33.0793571,51.7732541],[33.2220368,51.5801704],[33.1329556,51.3822418],[33.0169524,51.3960496],[33.0688213,51.2550329],[32.9426042,51.0896908],[33.0693178,51.0691977],[33.0403278,50.9921875],[33.2003096,50.9616213],[33.1563345,50.7922566],[33.2402392,50.7323541],[33.1360216,50.7105702],[33.0648556,50.5197576],[33.2212305,50.5034541],[33.2763648,50.5535118],[33.4337945,50.4755113],[33.733883,50.4584968],[33.9550455,50.5475607],[34.0978529,50.4810374],[34.219562,50.5334484],[34.2520272,50.4408763],[34.5709169,50.2269955],[34.5461646,50.1324772],[34.9403583,50.1521815],[35.2603892,50.2344283],[35.3300292,50.3186529],[35.5244478,50.2901141],[35.6580016,50.3511483]]]},"properties":{"@location_uid":20,"@id":"relation/71250","ISO3166-2":"UA-59","admin_level":"4","boundary":"administrative","katotth":"UA59000000000057109","koatuu":"5900000000","name":"Сумська область","name:ar":"سومي أوبلاست","name:be":"Сумская вобласць","name:be-tarask":"Сумская вобласьць","name:bg":"Сумска област","name:ca":"Província de Sumy","name:crh":"Sumı vilâyeti","name:cs":"Sumská oblast","name:de":"Oblast Sumy","name:en":"Sumy Oblast","name:eo":"Sumia provinco","name:es":"Óblast de Sumy","name:et":"Sumõ oblast","name:eu":"Sumyko oblasta","name:fa":"استان سومی","name:fi":"Sumyn alue","name:fr":"Oblast de Soumy","name:ga":"Cúige Shumy","name:hr":"Sumska oblast","name:hu":"Szumi terület","name:hy":"Սումիի մարզ","name:id":"Oblast Sumy","name:it":"Oblast' di Sumy","name:ja":"スームィ州","name:ka":"სუმის ოლქი","name:ko":"수미 주","name:lt":"Sumų sritis","name:lv":"Sumu apgabals","name:mk":"Сумска област","name:mr":"सुमी ओब्लास्त","name:nan":"Sumy séng","name:nl":"Oblast Soemy","name:nn":"Sumy oblast","name:no":"Sumy oblast","name:os":"Сумыйы облæст","name:pl":"Obwód sumski","name:pnb":"سومی اوبلاست","name:pt":"Oblast de Sumi","name:ro":"Regiunea Sumî","name:ru":"Сумская область","name:rue":"Сумска область","name:sco":"Sumy Oblast","name:sh":"Sumska oblast","name:sk":"Sumská oblasť","name:sr":"Сумска област","name:sv":"Sumy oblast","name:tr":"Sumi Oblastı","name:uk":"Сумська область","name:vi":"Sumi (tỉnh)","name:war":"Sumy Oblast","name:xmf":"სუმაშ ოლქი","name:zh":"苏梅州","place":"state","ref":"СУМ","ref:en":"SUM","timezone":"Europe/Kyiv","type":"boundary","wikidata":"Q170446","wikipedia":"uk:Сумська область"},"id":"relation/71250"},
{"type":"Feature","geometry":{"type":"Polygon","coordinates":[[[36.7389079,48.6259487],[36.7207933,48.8060797],[37.035749,48.7460095],[37.0237648,48.8178852],[37.1920963,48.8144756],[37.2226721,48.9087399],[37.3283404,48.9221538],[37.3113835,48.9900319],[37.5848991,49.1260061],[37.502566,49.186479],[37.5610059,49.2280431],[37.8745133,49.2339965],[37.9584141,49.2851618],[37.83667,49.4926815],[38.0457938,49.657506],[37.951187,49.7305178],[38.093529,49.8460777],[38.0329353,49.9003948],[37.9254475,50.0346313],[37.6403081,50.1760375],[37.635743,50.3108121],[37.4721846,50.3683759],[37.4906704,50.457335],[36.8700084,50.3361537],[36.647948,50.217656],[36.4334535,50.3306376],[36.2957047,50.2917904],[36.0682619,50.451111],[35.8319584,50.4338511],[35.6580016,50.3511483],[35.5244478,50.2901141],[35.3300292,50.3186529],[35.2603892,50.2344283],[34.9403583,50.1521815],[34.859465,49.9496284],[35.2193739,49.829652],[35.2436622,49.6935165],[35.433372,49.6734492],[35.4856818,49.5720132],[35.4049415,49.5553711],[35.4907973,49.5078647],[35.33168,49.5049098],[35.375321,49.3982179],[35.2716587,49.2771222],[35.0241127,49.3256017],[35.0178946,49.1507738],[35.1879168,49.1626413],[35.1902869,49.110238],[35.4855021,48.9725939],[35.8074365,48.9271799],[35.9399698,48.9990133],[36.1430402,48.7243035],[36.2826748,48.6592397],[36.2962497,48.531178],[36.482913,48.6636476],[36.5906985,48.6027629],[36.7389079,48.6259487]]]},"properties":{"@location_uid":22,"@id":"relation/71254","ISO3166-2":"UA-63","admin_level":"4","alt_name:cs":"Charkivská oblast","boundary":"administrative","flag":"http://upload.wikimedia.org/wikipedia/commons/4/41/Flag_of_Kharkiv_Oblast.svg","katotth":"UA63000000000041885","koatuu":"6300000000","name":"Харківська область","name:ar":"خاركيف أوبلاست","name:be":"Харкаўская вобласць","name:be-tarask":"Харкаўская вобласьць","name:bg":"Харковска област","name:ca":"Província de Khàrkiv","name:crh":"Harkiv vilâyeti","name:cs":"Charkovská oblast","name:de":"Oblast Charkiw","name:en":"Kharkiv Oblast","name:eo":"Ĥarkiva provinco","name:es":"Óblast de Járkiv","name:et":"Harkivi oblast","name:eu":"Kharkiveko oblasta","name:fa":"استان خارکف","name:fi":"Harkivan alue","name:fr":"Oblast de Kharkiv","name:hr":"Harkivska oblast","name:hu":"Harkivi terület","name:hy":"Խարկովի մարզ","name:id":"Oblast Kharkiv","name:it":"Oblast' di Charkiv","name:ja":"ハルキウ州","name:ka":"ხარკოვის ოლქი","name:ko":"하르키우 주","name:lt":"Charkovo sritis","name:lv":"Harkovas apgabals","name:mk":"Харковска област","name:mr":"खार्कीव्ह ओब्लास्त","name:nan":"Xarkiv séng","name:nl":"Oblast Charkov","name:nn":"Kharkiv oblast","name:no":"Kharkiv oblast","name:os":"Харьковы облæст","name:pl":"Obwód charkowski","name:pnb":"خارکیف اوبلاست","name:pt":"Oblast de Kharkiv","name:ro":"Regiunea Harkiv","name:ru":"Харьковская область","name:rue":"Харківска область","name:sco":"Kharkiv Oblast","name:sh":"Harkivska oblast","name:sk":"Charkovská oblasť","name:sr":"Харковска област","name:sv":"Charkiv oblast","name:szl":"Charkowski uobwůd","name:tr":"Harkiv Oblastı","name:uk":"Харківська область","name:vi":"Kharkiv","name:war":"Kharkiv Oblast","name:xmf":"ხარკოვიშ ოლქი","name:zh":"哈尔科夫州","name:zh-Hans":"哈尔科夫州","name:zh-Hant":"哈爾科夫州","old_name:es":"Óblast de Járkov","old_name:fi":"Harkovan alue","old_name:nl":"Oblast Charkov","old_name:ro":"Regiunea Harkov","place":"state","ref":"ХАР","ref:en":"KHA","timezone":"Europe/Kyiv","type":"boundary","wikidata":"Q170666","wikipedia":"uk:Харківська область"},"id":"relation/71254"},
{"type":"Feature","geometry":{"type":"Polygon","coordinates":[[[39.0744646,47.8695196],[39.5425159,47.8250596],[39.7949201,47.8703755],[39.7764975,48.0397836],[39.8833881,48.0416068],[39.8339672,48.0670142],[40.0207043,48.2536483],[39.9904382,48.3171825],[39.9153873,48.2696662],[39.8408125,48.3096602],[39.9467075,48.3541298],[39.8497724,48.5686954],[39.6606968,48.6094301],[39.8000067,48.8426356],[39.976136,48.7934566],[40.0798362,48.8699514],[40.0351158,48.9159109],[39.9932215,48.8682343],[39.8270085,48.8864235],[39.6722598,49.0405133],[39.9378052,49.0563694],[40.0310227,49.1794522],[40.2218056,49.2511975],[40.2004606,49.3457723],[40.0296187,49.4540906],[40.0390626,49.5206343],[40.1703866,49.5689372],[40.1354561,49.6170899],[39.8064088,49.5581257],[39.6587093,49.6160723],[39.6106823,49.7336425],[39.2855875,49.7551815],[39.1799184,49.8887192],[38.9302388,49.7969077],[38.9013031,49.8693871],[38.6940656,49.9347989],[38.6870939,50.0070969],[38.6471061,49.9559856],[38.4887955,49.9637401],[38.3498476,50.006984],[38.3131483,50.088449],[38.1787737,50.079928],[38.2218117,49.9791893],[38.0329353,49.9003948],[38.093529,49.8460777],[37.951187,49.7305178],[38.0457938,49.657506],[37.83667,49.4926815],[37.9584141,49.2851618],[37.8745133,49.2339965],[37.9268901,49.1435746],[38.0815852,49.148068],[38.0984884,48.9924678],[38.0075289,48.9446747],[38.2279914,48.9367431],[38.2212424,48.8392965],[38.3137518,48.8284843],[38.3153021,48.6843592],[38.22888,48.6340971],[38.2881689,48.4761967],[38.4331875,48.4476651],[38.4868568,48.361872],[38.4270415,48.2782877],[38.5746523,48.2676195],[38.6016265,48.1725099],[38.8203959,48.1162414],[38.8253525,48.0297743],[39.0398439,48.0069404],[39.0744646,47.8695196]]]},"properties":{"@location_uid":16,"@id":"relation/71971","ISO3166-2":"UA-09","admin_level":"4","boundary":"administrative","katotth":"UA44000000000018893","koatuu":"4400000000","name":"Луганська область","name:ar":"لوهانسك أوبلاست","name:be":"Луганская вобласць","name:be-tarask":"Луганская вобласьць","name:bg":"Луганска област","name:ca":"Província de Luhansk","name:crh":"Lugansk vilâyeti","name:cs":"Luhanská oblast","name:de":"Oblast Luhansk","name:en":"Luhansk Oblast","name:eo":"Luhanska provinco","name:es":"Óblast de Luhansk","name:et":"Luhanski oblast","name:eu":"Luhanskeko oblasta","name:fa":"استان لوهانسک","name:fi":"Luhanskin alue","name:fr":"Oblast de Louhansk","name:ga":"Cúige Luhansk","name:hr":"Luhanska oblast","name:hu":"Luhanszki terület","name:hy":"Լուգանսկի մարզ","name:id":"Oblast Luhansk","name:it":"Oblast' di Luhans'k","name:ja":"ルハーンシク州","name:ka":"ლუგანსკის ოლქი","name:ko":"루한시크 주","name:lt":"Luhansko sritis","name:lv":"Luhanskas apgabals","name:mk":"Луганска област","name:mr":"लुहान्स्क ओब्लास्त","name:nan":"Lugansk séng","name:nl":"Oblast Loehansk","name:nn":"Luhansk oblast","name:no":"Luhansk oblast","name:os":"Лугансчы облæст","name:pl":"Obwód ługański","name:pnb":"لوہانسک اوبلاست","name:pt":"Oblast de Lugansk","name:ro":"Regiunea Luhansk","name:ru":"Луганская область","name:rue":"Луганьска область","name:sco":"Luhansk Oblast","name:sh":"Luganska oblast","name:sk":"Luhanská oblasť","name:sr":"Луганска област","name:sv":"Luhansk oblast","name:tr":"Luhansk Oblastı","name:uk":"Луганська область","name:vi":"Luhansk (tỉnh)","name:war":"Luhansk Oblast","name:xmf":"ლუგანსკიშ ოლქი","name:zh":"卢甘斯克州","old_name:de":"Oblast Lugansk","old_name:en":"Lugansk Oblast","old_name:eo":"Luganska provinco","place":"state","ref":"ЛУГ","ref:en":"LUG","timezone":"Europe/Kyiv","type":"boundary","wikidata":"Q171965","wikipedia":"uk:Луганська область"},"id":"relation/71971"},
{"type":"Feature","geometry":{"type":"Polygon","coordinates":[[[36.5847724,47.8473971],[36.7133797,47.6788709],[36.7916444,47.6849218],[36.7182719,47.6588466],[36.7481032,47.6065962],[36.8303171,47.6242291],[36.8934106,47.5449148],[36.9443387,47.5761317],[37.1577018,47.4548597],[37.2451667,47.4691811],[37.2034197,47.3557556],[36.9260221,47.3194161],[36.9625814,47.2016615],[36.8547708,47.1991557],[37.1249171,47.0391072],[37.1411334,46.9819937],[37.0214221,46.9278993],[37.1687215,46.710379],[37.3979391,46.7015874],[37.620074,46.8298909],[38.1408636,46.8609996],[38.3381215,46.9807515],[38.228514,47.1226068],[38.2329087,47.228951],[38.33353,47.26919],[38.220892,47.3053966],[38.3107926,47.5761448],[38.6658283,47.6987288],[38.7726084,47.6855249],[38.8418359,47.8668685],[39.0744646,47.8695196],[39.0398439,48.0069404],[38.8253525,48.0297743],[38.8203959,48.1162414],[38.6016265,48.1725099],[38.5746523,48.2676195],[38.4270415,48.2782877],[38.4868568,48.361872],[38.4331875,48.4476651],[38.2881689,48.4761967],[38.22888,48.6340971],[38.3153021,48.6843592],[38.3137518,48.8284843],[38.2212424,48.8392965],[38.2279914,48.9367431],[38.0075289,48.9446747],[38.0984884,48.9924678],[38.0815852,49.148068],[37.9268901,49.1435746],[37.8745133,49.2339965],[37.5610059,49.2280431],[37.502566,49.186479],[37.5848991,49.1260061],[37.3113835,48.9900319],[37.3283404,48.9221538],[37.2226721,48.9087399],[37.1920963,48.8144756],[37.0237648,48.8178852],[37.035749,48.7460095],[36.7207933,48.8060797],[36.7389079,48.6259487],[36.9015433,48.5433428],[36.8087751,48.3478964],[36.9120401,48.3091419],[36.9368344,48.1940214],[36.8727082,48.1841687],[36.8545286,48.0346107],[36.5801446,48.0794222],[36.6402445,47.9203042],[36.5419522,47.9060131],[36.5847724,47.8473971]]]},"properties":{"@location_uid":28,"@id":"relation/71973","ISO3166-2":"UA-14","admin_level":"4","boundary":"administrative","flag":"http://upload.wikimedia.org/wikipedia/commons/5/5d/Flag_of_Donetsk_Oblast.svg","katotth":"UA14000000000091971","koatuu":"1400000000","name":"Донецька область","name:ar":"دونيتسك أوبلاست","name:az":"Donetsk Oblastı","name:be":"Данецкая вобласць","name:be-tarask":"Данецкая вобласьць","name:bg":"Донецка област","name:ca":"Província de Donetsk","name:crh":"Donetsk vilâyeti","name:cs":"Doněcká oblast","name:de":"Oblast Donezk","name:en":"Donetsk Oblast","name:eo":"Donecka provinco","name:es":"Óblast de Donetsk","name:et":"Donetski oblast","name:eu":"Donetskeko oblasta","name:fa":"استان دونتسک","name:fi":"Donetskin alue","name:fr":"Oblast de Donetsk","name:hr":"Donečka oblast","name:hu":"Donecki terület","name:hy":"Դոնեցկի մարզ","name:id":"Oblast Donetsk","name:it":"Oblast' di Donec'k","name:ja":"ドネツィク州","name:ka":"დონეცკის ოლქი","name:ko":"도네츠크 주","name:lt":"Donecko sritis","name:lv":"Doņeckas apgabals","name:mk":"Донечка област","name:mr":"दोनेत्स्क ओब्लास्त","name:nan":"Doneczk séng","name:nl":"Oblast Donetsk","name:nn":"Donetsk oblast","name:no":"Donetsk oblast","name:os":"Донецчы облæст","name:pl":"Obwód doniecki","name:pnb":"دونیتسک اوبلاست","name:pt":"Oblast de Donetsk","name:ro":"Regiunea Donețk","name:ru":"Донецкая область","name:rue":"Донецька область","name:sco":"Donetsk Oblast","name:sh":"Donečka oblast","name:sk":"Donecká oblasť","name:sr":"Доњечка област","name:sv":"Donetsk oblast","name:szl":"Důńecki uobwůd","name:tr":"Donetsk Oblastı","name:tt":"Донецк өлкәсе","name:uk":"Донецька область","name:vi":"Donetsk (tỉnh)","name:war":"Donetsk Oblast","name:zh":"顿涅茨克州","place":"state","population":"4275935","postal_code":"83000-87999","ref":"ДОН","ref:en":"DON","timezone":"Europe/Kyiv","type":"boundary","wikidata":"Q2012050","wikipedia":"uk:Донецька область"},"id":"relation/71973"},
{"type":"Feature","geometry":{"type":"Polygon","coordinates":[[[34.1394646,47.4772499],[34.2426886,47.4338649],[34.2935203,47.2736457],[34.5121847,47.3350429],[34.5672697,47.0244915],[34.8046826,46.8825274],[34.7504856,46.7578954],[34.6252257,46.723972],[34.7461772,46.6832188],[34.7232991,46.5814666],[35.0546771,46.4818658],[35.0720342,46.2995725],[35.2780627,46.264581],[35.4680391,46.1464862],[35.8444224,46.409999],[36.1182054,46.3005817],[36.2775441,46.3441003],[36.4987834,46.5281547],[36.7093378,46.4628902],[36.8775187,46.4783618],[37.1687215,46.710379],[37.0214221,46.9278993],[37.1411334,46.9819937],[37.1249171,47.0391072],[36.8547708,47.1991557],[36.9625814,47.2016615],[36.9260221,47.3194161],[37.2034197,47.3557556],[37.2451667,47.4691811],[37.1577018,47.4548597],[36.9443387,47.5761317],[36.8934106,47.5449148],[36.8303171,47.6242291],[36.7481032,47.6065962],[36.7182719,47.6588466],[36.7916444,47.6849218],[36.7133797,47.6788709],[36.5847724,47.8473971],[36.0736508,47.8488326],[36.1301856,47.8903331],[36.0524844,48.0590719],[35.8168631,48.0661227],[35.7034121,48.1402147],[35.5241386,48.0746014],[35.2950206,48.1443499],[34.9902585,48.0891896],[34.8551126,48.133049],[34.9190894,47.9334607],[34.8019738,47.915638],[34.8972316,47.8528148],[34.8936183,47.7602236],[34.9574977,47.7695877],[34.9580347,47.538279],[34.572379,47.5616158],[34.1394646,47.4772499]]]},"properties":{"@location_uid":12,"@id":"relation/71980","ISO3166-2":"UA-23","admin_level":"4","boundary":"administrative","katotth":"UA23000000000064947","koatuu":"2300000000","name":"Запорізька область","name:ar":"زابوروجييه أوبلاست","name:az":"Zaporojya vilayəti","name:be":"Запарожская вобласць","name:be-tarask":"Запароская вобласьць","name:bg":"Запорожка област","name:bs":"Zaporiška oblast","name:ca":"Província de Zaporíjjia","name:crh":"Zaporijjâ vilâyeti","name:cs":"Záporožská oblast","name:de":"Oblast Saporischschja","name:en":"Zaporizhia Oblast","name:eo":"Zaporiĵa provinco","name:es":"Óblast de Zaporiyia","name:et":"Zaporižžja oblast","name:eu":"Zaporizhiako oblasta","name:fi":"Zaporižžjan alue","name:fr":"Oblast de Zaporijia","name:ga":"Cúige Zaporizhia","name:hr":"Zaporiška oblast","name:hu":"Zaporizzsjai terület","name:hy":"Զապորոժիեի մարզ","name:id":"Oblast Zaporizhia","name:it":"Oblast' di Zaporižžja","name:ja":"ザポリージャ州","name:ka":"ზაპოროჟიეს ოლქი","name:ko":"자포리자 주","name:lt":"Zaporižias sritis","name:lv":"Zaporižjas apgabals","name:mk":"Запорошка област","name:mr":"झापोरिझिया ओब्लास्त","name:nan":"Zaporizhzhya séng","name:nl":"Oblast Zaporizja","name:nn":"Zaporizjzjia oblast","name:no":"Zaporizjzjia oblast","name:os":"Запорожьейы облæст","name:pl":"Obwód zaporoski","name:pnb":"زاپوریژینا اوبلاست","name:pt":"Oblast de Zaporíjia","name:ro":"Regiunea Zaporijjea","name:ru":"Запорожская область","name:rue":"Запорізька область","name:sco":"Zaporizhia Oblast","name:sh":"Zaporiška oblast","name:sk":"Záporožská oblasť","name:sr":"Запорошка област","name:sv":"Zaporizjzja oblast","name:tr":"Zaporijya Oblastı","name:uk":"Запорізька область","name:vi":"Zaporizhia (tỉnh)","name:war":"Zaporizhia Oblast","name:zh":"扎波里日扎州","old_name:az":"Zaporojye vilayəti","old_name:lt":"Zaporožės sritis","old_name:lv":"Zaporožjes apgabals","old_name:ro":"Regiunea Zaporoje","old_name:zh":"扎波羅熱州","place":"state","ref":"ЗАП","ref:en":"ZAP","timezone":"Europe/Kyiv","type":"boundary","wikidata":"Q171334","wikipedia":"uk:Запорізька область"},"id":"relation/71980"},
{"type":"Feature","geometry":{"type":"Polygon","coordinates":[[[24.0981892,50.6374365],[23.997543,50.4121407],[23.7087571,50.3792641],[23.2800844,50.1005448],[22.6408214,49.5299899],[22.7468489,49.3598976],[22.7072649,49.1749798],[22.8901678,49.0970909],[22.8890964,49.0067091],[22.9862672,48.836128],[23.0985234,48.8628344],[23.2017233,48.7603487],[23.5470764,48.7253908],[23.5658425,48.9747138],[23.6907354,49.096291],[24.4349728,49.17381],[24.4468111,49.2306814],[24.2987871,49.2958336],[24.4293638,49.3732931],[24.3598599,49.4307159],[24.434721,49.5369373],[24.7208316,49.4967507],[24.721255,49.5698165],[24.9426733,49.6092041],[25.022051,49.7351751],[25.1118119,49.7414586],[25.0838073,49.8284641],[25.375037,49.8679764],[25.4270041,49.9431564],[25.3466915,50.0040452],[25.1972475,50.1310292],[25.2049392,50.2793035],[25.1127372,50.2872511],[24.9406026,50.3892649],[24.9368321,50.3457144],[24.7148915,50.3428563],[24.5306178,50.5515668],[24.0981892,50.6374365]]]},"properties":{"@location_uid":27,"@id":"relation/72380","ISO3166-2":"UA-46","admin_level":"4","boundary":"administrative","katotth":"UA46000000000026241","koatuu":"4600000000","name":"Львівська область","name:ar":"لفيف أوبلاست","name:az":"Lvov vilayəti","name:be":"Львоўская вобласць","name:be-tarask":"Львоўская вобласьць","name:bg":"Лвовска област","name:ca":"Província de Lviv","name:crh":"İlbav vilâyeti","name:cs":"Lvovská oblast","name:cv":"Львов облаçĕ","name:de":"Oblast Lemberg","name:en":"Lviv Oblast","name:eo":"Lviva provinco","name:es":"Óblast de Leópolis","name:et":"Lvivi oblast","name:eu":"Lviveko oblasta","name:fa":"استان لووف","name:fi":"Lvivin alue","name:fr":"Oblast de Lviv","name:he":"מחוז לבוב","name:hr":"Ljvivska oblast","name:hu":"Lvivi terület","name:hy":"Լվովի մարզ","name:id":"Oblast Lviv","name:it":"Oblast' di Leopoli","name:ja":"リヴィウ州","name:ka":"ლვოვის ოლქი","name:ko":"리비우 주","name:lt":"Lvovo sritis","name:lv":"Ļvovas apgabals","name:mk":"Лавовска област","name:mr":"लिव्हिव ओब्लास्त","name:ms":"Oblast Lviv","name:nan":"Lviv séng","name:nl":"Oblast Lviv","name:nn":"Lviv oblast","name:no":"Lviv oblast","name:os":"Львовы облæст","name:pl":"Obwód lwowski","name:pnb":"لویو اوبلاست","name:pt":"Oblast de Lviv","name:ro":"Regiunea Liov","name:ru":"Львовская область","name:rue":"Львівска область","name:sco":"Lviv Oblast","name:sh":"Lavovska oblast","name:sk":"Ľvovská oblasť","name:sr":"Лавовска област","name:sv":"Lviv oblast","name:szl":"Lwowski uobwůd","name:tr":"Lviv Oblastı","name:uk":"Львівська область","name:vi":"Lviv (tỉnh)","name:war":"Lviv Oblast","name:zh":"利沃夫州","name:zh-Hans":"利沃夫州","name:zh-Hant":"利維夫州","place":"state","ref":"ЛЬВ","ref:en":"LVI","timezone":"Europe/Kyiv","type":"boundary","wikidata":"Q164193","wikipedia":"uk:Львівська область"},"id":"relation/72380"},
{"type":"Feature","geometry":{"type":"Polygon","coordinates":[[[25.6392306,48.6700511],[25.6405498,48.7481111],[25.4517561,48.8673881],[25.2109485,48.8462336],[25.2342541,48.9319971],[25.1426264,48.8678698],[25.1194282,48.9948119],[24.9654863,48.9927996],[24.9029265,49.054698],[24.9853817,49.1167563],[24.8564002,49.1637128],[24.9331085,49.2356489],[24.8433199,49.2625519],[24.8592875,49.3470144],[24.7208316,49.4967507],[24.434721,49.5369373],[24.3598599,49.4307159],[24.4293638,49.3732931],[24.2987871,49.2958336],[24.4468111,49.2306814],[24.4349728,49.17381],[23.6907354,49.096291],[23.5658425,48.9747138],[23.5470764,48.7253908],[23.9289158,48.5523017],[23.9250494,48.4652716],[24.1241848,48.534142],[24.1788062,48.3652384],[24.304888,48.396606],[24.488186,48.2798435],[24.5035529,48.152684],[24.6273941,48.0474602],[24.5629372,47.9686753],[24.9225267,47.7267662],[24.9974252,47.856735],[24.9116685,48.0270099],[25.314749,48.3671382],[25.621779,48.3787492],[25.6392306,48.6700511]]]},"properties":{"@location_uid":13,"@id":"relation/72488","ISO3166-2":"UA-26","admin_level":"4","boundary":"administrative","flag":"http://upload.wikimedia.org/wikipedia/commons/a/a2/Flag_of_Ivano-Frankivsk_Oblast.svg","katotth":"UA26000000000069363","koatuu":"2600000000","name":"Івано-Франківська область","name:ar":"إيفانو فرانكيفسك أوبلاست","name:be":"Івана-Франкоўская вобласць","name:be-tarask":"Івана-Франкоўская вобласьць","name:bg":"Ивано-Франковска област","name:ca":"Província d'Ivano-Frankivsk","name:crh":"İvano-Frankivsk vilâyeti","name:cs":"Ivanofrankivská oblast","name:de":"Oblast Iwano-Frankiwsk","name:en":"Ivano-Frankivsk Oblast","name:eo":"Ivano-Frankivska provinco","name:es":"Óblast de Ivano-Frankivsk","name:et":"Ivano-Frankivski oblast","name:eu":"Ivano-Frankivskeko oblasta","name:fa":"استان ایوانو فرانکیسوک","name:fi":"Ivano-Frankivskin alue","name:fr":"Oblast d'Ivano-Frankivsk","name:hr":"Ivano-Frankivska oblast","name:hu":"Ivano-frankivszki terület","name:hy":"Իվանո-Ֆրանկովսկի մարզ","name:id":"Oblast Ivano-Frankivsk","name:it":"Oblast' di Ivano-Frankivs'k","name:ja":"イヴァーノ＝フランキーウシク州","name:ka":"ივანო-ფრანკოვსკის ოლქი","name:ko":"이바노프란키우시크 주","name:lt":"Ivano Frankivsko sritis","name:lv":"Ivanofrankivskas apgabals","name:mk":"Ивано-Франковска област","name:mr":"इव्हानो-फ्रांकिव्ह्स्क ओब्लास्त","name:nan":"Ivano-Frankivsk séng","name:nl":"Oblast Ivano-Frankivsk","name:nn":"Ivano-Frankivsk oblast","name:no":"Ivano-Frankivsk oblast","name:pl":"Obwód iwanofrankiwski","name:pnb":"ایوانو فرانکیوسک اوبلاست","name:pt":"Oblast de Ivano-Frankivsk","name:ro":"Regiunea Ivano-Frankivsk","name:ru":"Ивано-Франковская область","name:rue":"Івано-Франківска область","name:sco":"Ivano-Frankivsk Oblast","name:sh":"Ivano-Frankivska oblast","name:sk":"Ivanofrankivská oblasť","name:sv":"Ivano-Frankivsk oblast","name:szl":"Iwanofrankiwski uobwůd","name:tr":"İvano-Frankivsk Oblastı","name:uk":"Івано-Франківська область","name:vi":"Ivano-Frankivsk (tỉnh)","name:war":"Ivano-Frankivsk Oblast","name:zh":"伊万诺-弗兰科夫斯克州","old_name:cs":"Stanislavská oblast","place":"state","ref":"ІВФ","ref:en":"IVF","timezone":"Europe/Kyiv","type":"boundary","wikidata":"Q178269","wikipedia":"uk:Івано-Франківська область","wikipedia:pl":"pl:Obwód iwanofrankiwski"},"id":"relation/72488"},
{"type":"Feature","geometry":{"type":"Polygon","coordinates":[[[24.5629372,47.9686753],[24.6273941,48.0474602],[24.5035529,48.152684],[24.488186,48.2798435],[24.304888,48.396606],[24.1788062,48.3652384],[24.1241848,48.534142],[23.9250494,48.4652716],[23.9289158,48.5523017],[23.5470764,48.7253908],[23.2017233,48.7603487],[23.0985234,48.8628344],[22.9862672,48.836128],[22.8890964,49.0067091],[22.5701015,49.0910675],[22.339611,48.683893],[22.1609681,48.5672614],[22.142326,48.405255],[22.2651338,48.409986],[22.3847548,48.2339633],[22.4898726,48.253442],[22.5711443,48.1961428],[22.5902764,48.1073415],[22.8237428,48.1177781],[22.8977094,47.9540405],[22.9271159,48.0191626],[23.0906324,48.0058477],[23.1668411,48.1199908],[23.4936973,47.9678959],[23.5297268,48.0217884],[24.221271,47.896894],[24.5629372,47.9686753]]]},"properties":{"@location_uid":11,"@id":"relation/72489","ISO3166-2":"UA-21","admin_level":"4","alt_name:sk":"Zakarpatská Ukrajina","boundary":"administrative","flag":"http://upload.wikimedia.org/wikipedia/commons/3/3c/Flag_of_Transcarpathian_Oblast.svg","katotth":"UA21000000000011690","koatuu":"2100000000","name":"Закарпатська область","name:ar":"زاكارباتيا أوبلاست","name:be":"Закарпацкая вобласць","name:be-tarask":"Закарпацкая вобласьць","name:bg":"Закарпатска област","name:bs":"Zakarpatska oblast","name:ca":"Transcarpàcia","name:crh":"Zakarpattâ vilâyeti","name:cs":"Zakarpatská oblast","name:de":"Oblast Transkarpatien","name:en":"Zakarpattia Oblast","name:eo":"Transkarpata provinco","name:es":"Óblast de Zakarpatia","name:et":"Taga-Karpaatia","name:eu":"Transkarpatiako oblasta","name:fi":"Taka-Karpatian alue","name:fr":"Oblast de Transcarpatie","name:he":"זקרפטיה","name:hr":"Zakarpatska oblast","name:hu":"Kárpátalja","name:hy":"Անդրկարպատյան մարզ","name:id":"Oblast Zakarpattia","name:it":"Oblast' di Transcarpazia","name:ja":"ザカルパッチャ州","name:ka":"ტრანსკარპატიის ოლქი","name:ko":"자카르파탸 주","name:la":"Ruthenia Subcarpathanea","name:lt":"Užkarpatės sritis","name:lv":"Aizkarpatu apgabals","name:mk":"Закарпатска област","name:mr":"झाकारपत्तिया ओब्लास्त","name:nan":"Zakarpattya séng","name:nl":"Oblast Transkarpatië","name:nn":"Zakarpattja oblast","name:no":"Zakarpattja oblast","name:os":"Фæскарпаты облæст","name:pl":"Obwód zakarpacki","name:pnb":"زاکارپاتیا اوبلاست","name:pt":"Oblast da Transcarpátia","name:ro":"Regiunea Transcarpatia","name:ru":"Закарпатская область","name:rue":"Закарпатьска область","name:sco":"Zakarpattia Oblast","name:simple":"Zakarpattia Oblast","name:sk":"Zakarpatská oblasť","name:sr":"Закарпатска област","name:sv":"Zakarpatska oblast","name:szl":"Zakarpacki uobwůd","name:tr":"Zakarpatya Oblastı","name:uk":"Закарпатська область","name:uz":"Zakarpatye viloyati","name:war":"Zakarpattia Oblast","name:xmf":"ტრანსკარპატიაშ ოლქი","name:zh":"外喀爾巴阡州","place":"state","ref":"ЗАК","ref:en":"ZAK","timezone":"Europe/Kyiv","type":"boundary","wikidata":"Q170213","wikipedia":"uk:Закарпатська область"},"id":"relation/72489"},
{"type":"Feature","geometry":{"type":"Polygon","coordinates":[[[26.4433363,48.5386115],[26.3605184,48.5417135],[26.2213773,48.685914],[26.258556,48.8154802],[26.1839061,48.9155414],[26.1832148,49.1959295],[26.2595585,49.2896878],[26.1423169,49.5094531],[26.2724552,49.656975],[26.132751,49.8984001],[26.19871,50.0977586],[26.2735469,50.1028952],[26.2204692,50.179704],[26.220969,50.2668879],[25.4760526,50.1661423],[25.4890336,50.101817],[25.3466915,50.0040452],[25.4270041,49.9431564],[25.375037,49.8679764],[25.0838073,49.8284641],[25.1118119,49.7414586],[25.022051,49.7351751],[24.9426733,49.6092041],[24.721255,49.5698165],[24.7208316,49.4967507],[24.8592875,49.3470144],[24.8433199,49.2625519],[24.9331085,49.2356489],[24.8564002,49.1637128],[24.9853817,49.1167563],[24.9029265,49.054698],[24.9654863,48.9927996],[25.1194282,48.9948119],[25.1426264,48.8678698],[25.2342541,48.9319971],[25.2109485,48.8462336],[25.4517561,48.8673881],[25.6405498,48.7481111],[25.6392306,48.6700511],[25.7379572,48.6332455],[25.799178,48.6706572],[25.9090353,48.5868944],[26.0516462,48.6477657],[26.094272,48.5382554],[26.1182618,48.6200287],[26.1686714,48.5283177],[26.4433363,48.5386115]]]},"properties":{"@location_uid":21,"@id":"relation/72525","ISO3166-2":"UA-61","admin_level":"4","boundary":"administrative","flag":"http://upload.wikimedia.org/wikipedia/commons/d/dc/Flag_of_Ternopil_Oblast.svg","katotth":"UA61000000000060328","koatuu":"6100000000","name":"Тернопільська область","name:ar":"تيرنوبل أوبلاست","name:be":"Цярнопальская вобласць","name:be-tarask":"Тэрнопальская вобласьць","name:bg":"Тернополска област","name:ca":"Província de Ternópill","name:crh":"Ternopil vilâyeti","name:cs":"Ternopilská oblast","name:de":"Oblast Ternopil","name:en":"Ternopil Oblast","name:eo":"Ternopila provinco","name:es":"Óblast de Ternópil","name:et":"Ternopili oblast","name:eu":"Ternopilgo oblasta","name:fa":"استان ترنوپیل","name:fi":"Ternopilin alue","name:fr":"Oblast de Ternopil","name:he":"מחוז טרנופול","name:hr":"Ternopiljska oblast","name:hu":"Ternopili terület","name:hy":"Տերնոպոլի մարզ","name:id":"Oblast Ternopil","name:it":"Oblast' di Ternopil'","name:ja":"テルノーピリ州","name:ka":"ტერნოპოლის ოლქი","name:ko":"테르노필 주","name:lt":"Ternopilio sritis","name:lv":"Ternopiļas apgabals","name:mk":"Тернипилска област","name:mr":"तेर्नोपिल ओब्लास्त","name:nan":"Ternopil séng","name:nl":"Oblast Ternopil","name:nn":"Ternopil oblast","name:no":"Ternopil oblast","name:pl":"Obwód tarnopolski","name:pnb":"ترنوپل اوبلاست","name:pt":"Oblast de Ternopil","name:ro":"Regiunea Ternopil","name:ru":"Тернопольская область","name:rue":"Тернопільска область","name:sco":"Ternopil Oblast","name:sh":"Ternopiljska oblast","name:sk":"Ternopiľská oblasť","name:sr":"Тернопољска област","name:sv":"Ternopil oblast","name:szl":"Tarnopolski uobwůd","name:tr":"Ternopil Oblastı","name:uk":"Тернопільська область","name:vi":"Ternopil","name:war":"Ternopil Oblast","name:zh":"捷爾諾波爾州","place":"state","ref":"ТЕР","ref:en":"TER","timezone":"Europe/Kyiv","type":"boundary","wikidata":"Q173407","wikipedia":"uk:Тернопільська область","wikipedia:pl":"pl:Obwód tarnopolski"},"id":"relation/72525"},
{"type":"Feature","geometry":{"type":"Polygon","coordinates":[[[26.4433363,48.5386115],[26.1686714,48.5283177],[26.1182618,48.6200287],[26.094272,48.5382554],[26.0516462,48.6477657],[25.9090353,48.5868944],[25.799178,48.6706572],[25.7379572,48.6332455],[25.6392306,48.6700511],[25.621779,48.3787492],[25.314749,48.3671382],[24.9116685,48.0270099],[24.9974252,47.856735],[24.9225267,47.7267662],[25.1155779,47.7548305],[25.3111278,47.9142923],[26.1843731,47.9946644],[26.333738,48.1851019],[26.6220555,48.2409112],[26.6833695,48.3559201],[26.8173641,48.2952386],[26.7203297,48.4104595],[26.9952994,48.3594554],[27.0847731,48.4346715],[27.1241493,48.3790862],[27.2862136,48.3715583],[27.3197236,48.443607],[27.4467703,48.4090508],[27.5342699,48.4701365],[27.3716586,48.6289522],[27.2571263,48.622633],[27.2513782,48.5685842],[26.9811665,48.5910534],[26.8792962,48.5424713],[26.8006344,48.609177],[26.7798538,48.5477931],[26.7286753,48.5872579],[26.7271026,48.533048],[26.6226544,48.5548724],[26.7130884,48.4951262],[26.6124994,48.5066983],[26.6019478,48.4512969],[26.4433363,48.5386115]]]},"properties":{"@location_uid":26,"@id":"relation/72526","ISO3166-2":"UA-77","admin_level":"4","alt_name:cs":"Černivecká oblast","alt_name:hr":"Černovačka oblast","boundary":"administrative","katotth":"UA73000000000044923","koatuu":"7300000000","name":"Чернівецька область","name:ar":"تشيرنيفتسي أوبلاست","name:be":"Чарнавіцкая вобласць","name:be-tarask":"Чарнавіцкая вобласьць","name:bg":"Черновицка област","name:ca":"Província de Txernivtsí","name:crh":"Çernivtsi vilâyeti","name:cs":"Černovická oblast","name:de":"Oblast Tscherniwzi","name:en":"Chernivtsi Oblast","name:eo":"Ĉernivca provinco","name:es":"Óblast de Chernivtsi","name:et":"Tšernivtsi oblast","name:eu":"Txernivtsiko oblasta","name:fa":"استان چرنیوتسی","name:fi":"Tšernivtsin alue","name:fr":"Oblast de Tchernivtsi","name:hr":"Černivačka oblast","name:hu":"Csernyivci terület","name:hy":"Չեռնովցիի մարզ","name:id":"Oblast Chernivtsi","name:it":"Oblast' di Černivci","name:ja":"チェルニウツィー州","name:ka":"ჩერნოვცის ოლქი","name:ko":"체르니우치 주","name:lt":"Černivcių sritis","name:lv":"Černivcu apgabals","name:mk":"Черновечка област","name:mr":"चेर्निव्हत्सी ओब्लास्त","name:ms":"Oblast Chernivtsi","name:nan":"Chernivci séng","name:nl":"Oblast Tsjernivtsi","name:nn":"Tsjernivtsi oblast","name:no":"Tsjernivtsi oblast","name:os":"Черновцыйы облæст","name:pl":"Obwód czerniowiecki","name:pnb":"چرنیوتسی اوبلاست","name:pt":"Oblast de Chernivtsi","name:ro":"Regiunea Cernăuți","name:ru":"Черновицкая область","name:rue":"Чернівецька область","name:sco":"Chernivtsi Oblast","name:sh":"Černivecka oblast","name:sk":"Černovická oblasť","name:sr":"Чернивачка област","name:sv":"Tjernivtsi oblast","name:szl":"Czerńowjecki uobwůd","name:tr":"Çernovtsi Oblastı","name:uk":"Чернівецька область","name:vi":"Chernivtsi (tỉnh)","name:war":"Chernivtsi Oblast","name:zh":"切爾諾夫策州","place":"state","ref:en":"CRV","ref:uk":"ЧРВ","timezone":"Europe/Kyiv","type":"boundary","wikidata":"Q168856","wikipedia":"uk:Чернівецька область"},"id":"relation/72526"},
{"type":"Feature","geometry":{"type":"Polygon","coordinates":[[[28.8477324,48.0787794],[28.9258472,47.9601399],[29.1753154,47.9937782],[29.2006376,47.8843692],[29.2812682,47.8884345],[29.1984213,47.8198447],[29.2761347,47.8037076],[29.2339567,47.6425893],[29.1169452,47.5544243],[29.1575637,47.4592329],[29.2423457,47.4619687],[29.2437545,47.4153066],[29.3174901,47.4492004],[29.4270454,47.2921482],[29.5740647,47.3704656],[29.5799248,47.1357635],[29.4947466,47.1315218],[29.5302017,47.0754494],[29.6129159,47.0982362],[29.557411,46.9580908],[29.9681073,46.831934],[29.9679327,46.5975305],[29.8761222,46.5467361],[30.1637143,46.4135329],[29.8911359,46.3523887],[29.7412898,46.472979],[29.6033516,46.3536731],[29.4484591,46.4986546],[29.3961789,46.4252091],[29.3512806,46.5042009],[29.2407054,46.3761769],[29.2358278,46.5582865],[28.981347,46.489047],[28.952275,46.2594504],[29.0671142,46.1955029],[28.9504641,46.093734],[29.0055542,46.0493499],[28.7567233,45.9571642],[28.7859644,45.8323044],[28.7093574,45.779905],[28.5198391,45.7369615],[28.5151856,45.4998842],[28.3048006,45.5469071],[28.2153652,45.4714578],[28.341962,45.325015],[28.7138853,45.2236286],[28.7925883,45.2434782],[28.7961829,45.3347304],[28.941882,45.280499],[29.238151,45.432705],[29.4297317,45.4425841],[29.65093,45.3396186],[29.6906352,45.1917235],[29.9520734,45.1696735],[30.1290166,45.0601063],[30.3467775,45.0803533],[30.4684196,45.1782118],[30.4684196,45.3328264],[30.3131107,45.4419013],[30.0730156,45.4348232],[30.0663366,45.5058723],[30.434549,45.716597],[30.9185464,46.1255551],[31.047436,46.376862],[31.1590964,46.4096818],[31.1778072,46.769368],[31.0173839,46.9610091],[31.2914197,47.0247331],[31.2695325,47.1718815],[31.109965,47.1556144],[31.1704805,47.266338],[30.9075063,47.27738],[30.8759523,47.5449512],[30.7448445,47.5797813],[30.7885201,47.6492321],[30.6878634,47.6017609],[30.4205912,47.6342307],[30.4360069,47.8007676],[30.3303633,47.8109707],[30.2068714,48.0677683],[30.3568829,48.1010306],[30.3083451,48.1419575],[30.0677888,48.1451978],[29.9910033,48.2301597],[29.7807188,48.208462],[29.6547025,48.1952453],[29.663665,48.1075667],[29.311332,48.0859162],[29.0646424,48.1950765],[29.0326818,48.1257944],[28.9452196,48.1568145],[28.8477324,48.0787794]]]},"properties":{"@location_uid":18,"@id":"relation/72634","ISO3166-2":"UA-51","admin_level":"4","boundary":"administrative","is_in:country_code":"UA","katotth":"UA51000000000030770","koatuu":"5100000000","name":"Одеська область","name:ar":"أوديسا أوبلاست","name:az":"Odessa vilayəti","name:be":"Адэская вобласць","name:be-tarask":"Адэская вобласьць","name:bg":"Одеска област","name:ca":"Província d'Odessa","name:crh":"Ades vilâyeti","name:cs":"Oděská oblast","name:de":"Oblast Odessa","name:el":"Περιφέρεια Οδησσού","name:en":"Odesa Oblast","name:eo":"Odesa provinco","name:es":"Óblast de Odesa","name:et":"Odessa oblast","name:eu":"Odesako oblasta","name:fa":"استان اودسا","name:fi":"Odessan alue","name:fr":"Oblast d'Odessa","name:hr":"Odeška oblast","name:hu":"Odesszai terület","name:hy":"Օդեսայի մարզ","name:id":"Oblast Odessa","name:it":"Oblast' di Odessa","name:ja":"オデーサ州","name:ka":"ოდესის ოლქი","name:ko":"오데사 주","name:lt":"Odesos sritis","name:lv":"Odesas apgabals","name:mk":"Одеска област","name:mr":"ओदेसा ओब्लास्त","name:nan":"Odesa séng","name:nl":"Oblast Odessa","name:nn":"Odessa oblast","name:no":"Odessa oblast","name:os":"Одессæйы облæст","name:pl":"Obwód odeski","name:pnb":"اودیسا اوبلاست","name:pt":"Oblast de Odesa","name:ro":"Regiunea Odesa","name:ru":"Одесская область","name:rue":"Одеска область","name:sco":"Odessa Oblast","name:sh":"Odeška oblast","name:sk":"Odeská oblasť","name:sr":"Одешка област","name:sv":"Odessa oblast","name:tr":"Odessa Oblastı","name:uk":"Одеська область","name:ur":"اودیسا اوبلاست","name:vi":"Odessa (tỉnh)","name:war":"Odessa Oblast","name:xmf":"ოდესაშ ოლქი","name:zh":"敖德萨州","name:zh-TW":"敖得薩洲","place":"state","ref":"ОДЕ","ref:en":"ODE","timezone":"Europe/Kyiv","type":"boundary","wikidata":"Q171852","wikipedia":"uk:Одеська область"},"id":"relation/72634"},
{"type":"Feature","geometry":{"type":"Polygon","coordinates":[[[31.1590964,46.4096818],[31.7974278,46.3490392],[31.9300896,46.652885],[32.0867801,46.6834813],[32.05715,46.7446436],[32.2186855,46.7713054],[32.2275364,46.8452028],[32.3415854,46.7954461],[32.5311826,46.8231376],[32.5442811,46.8831729],[32.7013967,46.8207644],[32.9491152,46.8579487],[32.8414564,46.900036],[32.9798654,46.9336997],[32.9496959,47.0031886],[33.0224893,46.9727807],[33.1557081,47.1174531],[33.1050252,47.1366073],[33.0269084,47.0396692],[32.9178741,47.1434371],[33.1836885,47.2380285],[33.1052117,47.280462],[33.1216126,47.3895899],[33.0359379,47.3911547],[33.0667949,47.4749215],[33.0715543,47.4124492],[33.1378337,47.4195283],[33.0926838,47.5788322],[32.9595839,47.5931072],[32.9722994,47.7226695],[33.0720927,47.7389395],[33.0783706,47.9204573],[33.0041257,47.9132389],[33.004483,47.9890748],[32.9892162,48.0484699],[32.8702838,48.0319424],[32.8941148,47.9857122],[32.6890579,47.9825853],[32.7455728,47.932722],[32.6517763,47.9214869],[32.6575792,47.8195987],[32.248037,47.816465],[32.1402589,47.7488944],[32.0548786,47.8173152],[31.8376686,47.7830536],[31.8766678,47.9194892],[31.8439389,47.9636924],[31.7527849,47.9437813],[31.7673464,48.1021392],[31.6340116,48.1348427],[31.4925401,48.0502899],[31.4868521,48.1295906],[31.2364712,48.1169589],[31.1641423,48.2224938],[31.0527322,48.2322044],[30.9004736,48.1593688],[30.7167351,48.1955866],[30.3083451,48.1419575],[30.3568829,48.1010306],[30.2068714,48.0677683],[30.3303633,47.8109707],[30.4360069,47.8007676],[30.4205912,47.6342307],[30.6878634,47.6017609],[30.7885201,47.6492321],[30.7448445,47.5797813],[30.8759523,47.5449512],[30.9075063,47.27738],[31.1704805,47.266338],[31.109965,47.1556144],[31.2695325,47.1718815],[31.2914197,47.0247331],[31.0173839,46.9610091],[31.1778072,46.769368],[31.1590964,46.4096818]]]},"properties":{"@location_uid":17,"@id":"relation/72635","ISO3166-2":"UA-48","admin_level":"4","boundary":"administrative","flag":"http://upload.wikimedia.org/wikipedia/commons/e/e1/Flag_of_Mykolaiv_Oblast.svg","katotth":"UA48000000000039575","koatuu":"4800000000","name":"Миколаївська область","name:ar":"ميكولايف أوبلاست","name:be":"Мікалаеўская вобласць","name:be-tarask":"Мікалаеўская вобласьць","name:bg":"Николаевска област","name:ca":"Província de Mykolàïv","name:crh":"Mıkolayiv vilâyeti","name:cs":"Mykolajivská oblast","name:de":"Oblast Mykolajiw","name:en":"Mykolaiv Oblast","name:eo":"Mikolajeva provinco","name:es":"Óblast de Mykolaiv","name:et":"Mõkolajivi oblast","name:eu":"Mykolaiveko oblasta","name:fa":"استان میکولائیف","name:fi":"Mykolajivin alue","name:fr":"Oblast de Mykolaïv","name:hr":"Mikolajivska oblast","name:hu":"Mikolajivi terület","name:hy":"Նիկոլաևի մարզ","name:id":"Oblast Mykolaiv","name:it":"Oblast' di Mykolaïv","name:ja":"ムィコラーイウ州","name:ka":"ნიკოლაევის ოლქი","name:ko":"미콜라이우 주","name:lt":"Mykolajivo sritis","name:lv":"Nikolajevas apgabals","name:mk":"Николаевска област","name:mr":"मिकोलाइव्ह ओब्लास्त","name:nan":"Mykolayiv séng","name:nl":"Oblast Mykolajiv","name:nn":"Mykolajiv oblast","name:no":"Mykolajiv oblast","name:pl":"Obwód mikołajowski","name:pnb":"میکولائیف اوبلاست","name:pt":"Oblast de Mikolaiv","name:ro":"Regiunea Mîkolaiv","name:ru":"Николаевская область","name:rue":"Миколаївска область","name:sco":"Mykolaiv Oblast","name:sh":"Mikolajivska oblast","name:sk":"Mykolajivská oblasť","name:sr":"Миколајивска област","name:sv":"Mykolajiv oblast","name:tr":"Mıkolayiv Oblastı","name:uk":"Миколаївська область","name:vi":"Mykolaiv (tỉnh)","name:war":"Mykolaiv Oblast","name:zh":"尼古拉耶夫州","place":"state","ref":"МИК","ref:en":"MYK","timezone":"Europe/Kyiv","type":"boundary","wikidata":"Q181633","wikipedia":"uk:Миколаївська область"},"id":"relation/72635"},
{"type":"Feature","geometry":{"type":"Polygon","coordinates":[[[35.2334204,45.7917299],[34.9597746,45.7565682],[34.7990874,45.8104643],[34.8021689,45.9006479],[34.628541,45.9864034],[34.4762212,45.9441393],[34.320021,46.0682092],[33.6467708,46.22958],[33.5407189,46.0120312],[32.7727018,45.8266419],[32.2974057,45.5749258],[32.2033717,45.4248082],[32.2434204,45.2628881],[32.572396,45.118263],[32.8314558,45.1507864],[33.0110823,45.0148866],[33.2951871,44.9405202],[33.6772085,44.7861542],[33.6161203,44.711976],[33.7769711,44.690265],[33.7162703,44.6204383],[33.8971535,44.4787873],[33.9262025,44.4213251],[33.7617836,44.3893566],[33.696591,44.1910397],[34.2375152,44.2321868],[34.5414024,44.3954029],[34.735755,44.5848013],[35.1774068,44.5973337],[35.6322493,44.8491155],[35.8198798,44.7923437],[36.2360841,44.8200932],[36.5994428,44.9301619],[36.530486,45.1992024],[36.6635019,45.3599397],[36.6684499,45.6266206],[36.3387005,45.6715002],[35.9817734,45.6167329],[35.785215,45.643321],[35.5747509,45.4895333],[35.2334204,45.7917299]]]},"properties":{"@location_uid":29,"@id":"relation/72639","ISO3166-2":"UA-43","admin_level":"4","alt_name:vi":"Cộng hoà Tự trị Crưm,Cộng hòa Tự trị Krym,Cộng hoà Tự trị Krym","boundary":"administrative","flag":"http://upload.wikimedia.org/wikipedia/commons/a/aa/Flag_of_Crimea.svg","is_in:country_code":"UA","katotth":"UA01000000000013043","koatuu":"0100000000","name":"Автономна Республіка Крим","name:ar":"جمهورية القرم ذاتية الحكم","name:az":"Krım Muxtar Respublikası","name:ba":"Ҡырым Автономиялы Республикаһы","name:be":"Аўтаномная Рэспубліка Крым","name:be-tarask":"Аўтаномная Рэспубліка Крым","name:ca":"República Autònoma de Crimea","name:crh":"Qırım Muhtar Cumhuriyeti","name:cs":"Autonomní republika Krym","name:cu":"Кꙑрꙑмьска Аѵтономьна Димократїꙗ","name:de":"Autonome Republik Krim","name:el":"Αυτόνομη Δημοκρατία της Κριμαίας","name:en":"Autonomous Republic of Crimea","name:eo":"Aŭtonoma Respubliko Krimeo","name:es":"República Autónoma de Crimea","name:fi":"Krimin autonominen tasavalta","name:fr":"République autonome de Crimée","name:hu":"Krími Autonóm Köztársaság","name:hy":"Ղրիմի Ինքնավար Հանրապետություն","name:it":"Repubblica autonoma di Crimea","name:ja":"クリミア自治共和国","name:ko":"크림자치공화국","name:lt":"Krymo autonominė respublika","name:mk":"Автономна Република Крим","name:nl":"Autonome Republiek van de Krim","name:os":"Хъырымы Автономон Республикæ","name:pl":"Republika Autonomiczna Krymu","name:pt":"República Autônoma da Crimeia","name:ru":"Республика Крым","name:sk":"Krymská autonómna republika","name:sv":"Autonoma republiken Krim","name:szl":"Autōnōmicznŏ Republika Krymu","name:tr":"Kırım Özerk Cumhuriyeti","name:tt":"Кырым Автономияле Җөмһүрияте","name:uk":"Автономна Республіка Крим","name:vi":"Cộng hòa Tự trị Crưm","name:zh":"克里米亚自治共和国","note":"claimed administrative unit of Ukraine, not to be confused with Republic of Crimea - administrative unit of Russia","place":"state","ref":"КРИ","ref:en":"CRI","timezone":"Europe/Simferopol","type":"boundary","wikidata":"Q756294","wikipedia":"uk:Автономна Республіка Крим"},"id":"relation/72639"},
{"type":"Feature","geometry":{"type":"Polygon","coordinates":[[[29.5052255,49.6491931],[28.993628,49.5972528],[29.0019049,49.7392589],[28.8730964,49.8888985],[28.569709,49.7738821],[28.4217989,49.8248963],[28.3790964,49.7803565],[28.2497549,49.8153052],[27.8178686,49.7341971],[27.7347501,49.4964867],[27.8515187,49.4269353],[27.8982953,49.1864329],[27.6032977,49.1624072],[27.4166945,49.0546581],[27.3716586,48.6289522],[27.5342699,48.4701365],[27.7863339,48.4465906],[28.0748217,48.3166837],[28.1002385,48.2312006],[28.3547454,48.2455696],[28.3066348,48.1394941],[28.4283707,48.172392],[28.4630751,48.0742285],[28.5773463,48.1824491],[28.8334871,48.1288117],[28.8477324,48.0787794],[28.9452196,48.1568145],[29.0326818,48.1257944],[29.0646424,48.1950765],[29.311332,48.0859162],[29.663665,48.1075667],[29.6547025,48.1952453],[29.7807188,48.208462],[29.7864111,48.3694983],[29.9677782,48.4715271],[29.9897693,48.6365968],[29.7658627,48.7862224],[29.7356332,48.9081989],[29.6515968,48.936848],[29.6847613,49.0269781],[29.6060329,49.0566111],[29.7335589,49.1228607],[29.7365532,49.2283612],[29.5028911,49.3699817],[29.5952597,49.4431365],[29.5052255,49.6491931]]]},"properties":{"@location_uid":8,"@id":"relation/90726","ISO3166-2":"UA-05","admin_level":"4","alt_name:de":"Oblast Winniza","alt_name:en":"Vinnitsa Oblast","boundary":"administrative","flag":"http://upload.wikimedia.org/wikipedia/commons/0/03/Flag_of_Vinnytsia_Oblast.svg","katotth":"UA05000000000010236","koatuu":"0500000000","name":"Вінницька область","name:ar":"فينيتسا أوبلاست","name:be":"Вінніцкая вобласць","name:be-tarask":"Віньніцкая вобласьць","name:bg":"Виницка област","name:ca":"Província de Vínnytsia","name:crh":"Vinnıtsâ vilâyeti","name:cs":"Vinnycká oblast","name:de":"Oblast Winnyzja","name:en":"Vinnytsia Oblast","name:eo":"Vinica provinco","name:es":"Óblast de Vinnytsia","name:et":"Vinnõtsja oblast","name:eu":"Vinnytsiako oblasta","name:fa":"استان وینیتسیا","name:fi":"Vinnytsjan alue","name:fr":"Oblast de Vinnytsia","name:gl":"Oblast de Vinnitsia","name:he":"מחוז ויניצה","name:hr":"Vinička oblast","name:hu":"Vinnicjai terület","name:hy":"Վիննիցայի մարզ","name:id":"Oblast Vinnytsia","name:it":"Oblast' di Vinnycja","name:ja":"ヴィーンヌィツャ州","name:ka":"ვინიცის ოლქი","name:ko":"빈니차 주","name:lt":"Vinycios sritis","name:lv":"Vinnicas apgabals","name:mk":"Виничка област","name:mr":"व्हिनित्सिया ओब्लास्त","name:nan":"Vinnycya séng","name:nl":"Oblast Vinnytsja","name:nn":"Vinnytsia oblast","name:no":"Vinnytsia oblast","name:os":"Винницæйы облæст","name:pl":"Obwód winnicki","name:pnb":"وینیتسیا اوبلاست","name:pt":"Oblast de Vinnitsa","name:ro":"Regiunea Vinița","name:ru":"Винницкая область","name:rue":"Віницька область","name:sco":"Vinnytsia Oblast","name:sh":"Vinička oblast","name:sk":"Vinnycká oblasť","name:sv":"Vinnytsja oblast","name:szl":"Winńicki uobwůd","name:tr":"Vinnitsa Oblastı","name:uk":"Вінницька область","name:vi":"Vinnytsia (tỉnh)","name:war":"Vinnytsia Oblast","name:zh":"文尼察州","place":"state","ref":"ВІН","ref:en":"VIN","timezone":"Europe/Kyiv","type":"boundary","wikidata":"Q166709","wikipedia":"uk:Вінницька область"},"id":"relation/90726"},
{"type":"Feature","geometry":{"type":"Polygon","coordinates":[[[27.8178686,49.7341971],[27.546772,49.903453],[27.546477,50.0115817],[27.6811811,50.0340492],[27.6154447,50.0861911],[27.665003,50.1933799],[27.3155756,50.3317396],[27.2483691,50.3927607],[27.3013301,50.493127],[27.1963416,50.5620649],[27.1179282,50.5947282],[26.9828002,50.5227292],[26.8272447,50.5230512],[26.5032636,50.2628235],[26.2204692,50.179704],[26.2735469,50.1028952],[26.19871,50.0977586],[26.132751,49.8984001],[26.2724552,49.656975],[26.1423169,49.5094531],[26.2595585,49.2896878],[26.1832148,49.1959295],[26.1839061,48.9155414],[26.258556,48.8154802],[26.2213773,48.685914],[26.3605184,48.5417135],[26.4433363,48.5386115],[26.6019478,48.4512969],[26.6124994,48.5066983],[26.7130884,48.4951262],[26.6226544,48.5548724],[26.7271026,48.533048],[26.7286753,48.5872579],[26.7798538,48.5477931],[26.8006344,48.609177],[26.8792962,48.5424713],[26.9811665,48.5910534],[27.2513782,48.5685842],[27.2571263,48.622633],[27.3716586,48.6289522],[27.4166945,49.0546581],[27.6032977,49.1624072],[27.8982953,49.1864329],[27.8515187,49.4269353],[27.7347501,49.4964867],[27.8178686,49.7341971]]]},"properties":{"@location_uid":3,"@id":"relation/90742","ISO3166-2":"UA-68","admin_level":"4","alt_name:de":"Oblast Chmelnizki","alt_name:en":"Khmelnitsky Oblast","boundary":"administrative","katotth":"UA68000000000099709","koatuu":"6800000000","name":"Хмельницька область","name:ar":"خملنيتسكي أوبلاست","name:be":"Хмяльніцкая вобласць","name:be-tarask":"Хмяльніцкая вобласьць","name:bg":"Хмелницка област","name:ca":"Província de Khmelnytskyi","name:crh":"Hmelnıtskıy vilâyeti","name:cs":"Chmelnycká oblast","name:de":"Oblast Chmelnyzkyj","name:en":"Khmelnytskyi Oblast","name:eo":"Ĥmelnicka provinco","name:es":"Óblast de Jmelnitski","name:et":"Hmelnõtskõi oblast","name:eu":"Khmelnytskyko oblasta","name:fa":"استان خملنیتسکی","name:fi":"Hmelnitskyin alue","name:fr":"Oblast de Khmelnitski","name:hr":"Hmeljnička oblast","name:hu":"Hmelnickiji terület","name:hy":"Խմելնիցկու մարզ","name:id":"Oblast Khmelnytskyi","name:it":"Oblast' di Chmel'nyc'kyj","name:ja":"フメリヌィーツィクィイ州","name:ka":"ხმელნიცკის ოლქი","name:ko":"흐멜니츠키 주","name:lt":"Chmelnyckio sritis","name:lv":"Hmeļņickas apgabals","name:mk":"Хмелничка област","name:mr":"ख्मेल्नित्स्की ओब्लास्त","name:nan":"Xmelnyczkyj séng","name:nl":"Oblast Chmelnitski","name:nn":"Khmelnytskyj oblast","name:no":"Khmelnytskyj oblast","name:pl":"Obwód chmielnicki","name:pnb":"خمیلنیتسکی اوبلاست","name:pt":"Oblast de Khmelnitski","name:ro":"Regiunea Hmelnițki","name:ru":"Хмельницкая область","name:rue":"Хмельницька область","name:sco":"Khmelnytskyi Oblast","name:sh":"Hmeljnička oblast","name:sk":"Chmeľnycká oblasť","name:sr":"Хмељничка област","name:sv":"Chmelnytskyj oblast","name:szl":"Chmjylńicki uobwůd","name:tr":"Hmelnitski Oblastı","name:uk":"Хмельницька область","name:vi":"Khmelnytskyi (tỉnh)","name:war":"Khmelnytskyi Oblast","name:zh":"赫梅利尼茨基州","old_name":"Кам’янець-Подільська область","place":"state","ref":"ХМЕ","ref:en":"KHM","timezone":"Europe/Kyiv","type":"boundary","wikidata":"Q171331","wikipedia":"uk:Хмельницька область"},"id":"relation/90742"},
{"type":"Feature","geometry":{"type":"Polygon","coordinates":[[[32.118106,50.2284028],[31.9341184,50.1584553],[31.9040163,50.0560697],[31.9797333,50.038701],[31.7171397,49.8522301],[31.580868,49.9067395],[31.5023639,49.8433268],[31.4367112,49.9841657],[31.2907657,49.9786275],[31.3801579,49.907259],[31.2078722,49.852244],[31.1538449,49.5554094],[30.9090149,49.3586178],[30.6071149,49.3703037],[30.5473941,49.3266149],[30.4734081,49.3650516],[30.3758619,49.2364118],[30.1897437,49.2750853],[30.2004215,49.328162],[30.1123291,49.2703198],[30.0264808,49.3343837],[29.8830054,49.186027],[29.7600152,49.1798318],[29.7365532,49.2283612],[29.7335589,49.1228607],[29.6060329,49.0566111],[29.6847613,49.0269781],[29.6515968,48.936848],[29.7356332,48.9081989],[29.7658627,48.7862224],[29.9897693,48.6365968],[29.9677782,48.4715271],[30.1137383,48.4521495],[30.4029125,48.573874],[30.5665508,48.5672257],[30.5759081,48.7207106],[30.6981482,48.7673974],[31.3812934,48.7277501],[31.5588747,48.8286888],[31.5817229,48.9126803],[31.8052944,48.9496396],[31.9212745,48.8801156],[32.1460206,48.9122758],[32.2826144,49.0845548],[32.4757196,49.0335256],[32.5215471,48.9388939],[32.8454602,48.980692],[32.8144669,49.0753207],[32.8904096,49.1265557],[32.757271,49.1668461],[32.8591216,49.2447143],[32.6103095,49.2534942],[32.4679855,49.3279285],[32.5100121,49.4080116],[32.7374875,49.3531128],[32.651165,49.436147],[32.7534007,49.5789121],[32.3739945,49.8744485],[32.4282925,49.9603795],[32.2616785,50.0825023],[32.2988625,50.1415637],[32.118106,50.2284028]]]},"properties":{"@location_uid":24,"@id":"relation/91278","ISO3166-2":"UA-71","admin_level":"4","boundary":"administrative","katotth":"UA71000000000010357","koatuu":"7100000000","name":"Черкаська область","name:ar":"محافظة تشيركاسي","name:be":"Чаркаская вобласць","name:be-tarask":"Чаркаская вобласьць","name:bg":"Черкаска област","name:ca":"Província de Txerkassy","name:crh":"Çerkası vilâyeti","name:cs":"Čerkaská oblast","name:de":"Oblast Tscherkassy","name:en":"Cherkasy Oblast","name:eo":"Ĉerkasa provinco","name:es":"Óblast de Cherkasy","name:et":"Tšerkassõ oblast","name:eu":"Txerkasyko oblasta","name:fa":"استان چرکاسی","name:fi":"Tšerkasyn alue","name:fr":"Oblast de Tcherkassy","name:ga":"Cúige Cherkasy","name:hr":"Čerkaška oblast","name:hu":"Cserkaszi terület","name:hy":"Չերկասիի մարզ","name:id":"Oblast Cherkasy","name:it":"Oblast' di Čerkasy","name:ja":"チェルカースィ州","name:ka":"ჩერკასის ოლქი","name:ko":"체르카시 주","name:lt":"Čerkasų sritis","name:lv":"Čerkasu apgabals","name:mk":"Черкаска област","name:mr":"चेर्कासी ओब्लास्त","name:ms":"Oblast Cherkasy","name:nan":"Cherkasy séng","name:nl":"Oblast Tsjerkasy","name:nn":"Tsjerkasy oblast","name:no":"Tsjerkasy oblast","name:pl":"Obwód czerkaski","name:pnb":"چرکیسی اوبلاست","name:pt":"Oblast de Tcherkássi","name:ro":"Regiunea Cerkasî","name:ru":"Черкасская область","name:rue":"Черкаска область","name:sco":"Cherkasy Oblast","name:sh":"Čerkaška oblast","name:sk":"Čerkaská oblasť","name:sr":"Черкашка област","name:sv":"Tjerkasy oblast","name:szl":"Czerkaski uobwůd","name:tr":"Çerkası Oblastı","name:uk":"Черкаська область","name:vi":"Cherkasy (tỉnh)","name:war":"Cherkasy Oblast","name:xmf":"ჩერკასიშ ოლქი","name:zh":"切爾卡瑟州","place":"state","ref":"ЧРК","ref:en":"CRK","timezone":"Europe/Kyiv","type":"boundary","wikidata":"Q161808","wikipedia":"uk:Черкаська область"},"id":"relation/91278"},
{"type":"Feature","geometry":{"type":"Polygon","coordinates":[[[34.9403583,50.1521815],[34.5461646,50.1324772],[34.5709169,50.2269955],[34.2520272,50.4408763],[34.219562,50.5334484],[34.0978529,50.4810374],[33.9550455,50.5475607],[33.733883,50.4584968],[33.4337945,50.4755113],[33.2763648,50.5535118],[33.2212305,50.5034541],[33.0648556,50.5197576],[32.7932802,50.3466702],[32.526394,50.345716],[32.3389953,50.4276212],[32.2545921,50.346965],[32.1434038,50.3484349],[32.118106,50.2284028],[32.2988625,50.1415637],[32.2616785,50.0825023],[32.4282925,49.9603795],[32.3739945,49.8744485],[32.7534007,49.5789121],[32.651165,49.436147],[32.7374875,49.3531128],[32.5100121,49.4080116],[32.4679855,49.3279285],[32.6103095,49.2534942],[32.8591216,49.2447143],[33.1019995,49.1852126],[33.1998675,49.0736036],[33.2618352,49.1529212],[33.3196157,48.9490147],[33.5751592,48.9110338],[33.6651085,48.9784797],[33.8943109,48.9019481],[34.2949835,48.7234598],[34.4019662,49.0936058],[34.5582025,49.0554068],[34.8466,49.1912571],[35.0178946,49.1507738],[35.0241127,49.3256017],[35.2716587,49.2771222],[35.375321,49.3982179],[35.33168,49.5049098],[35.4907973,49.5078647],[35.4049415,49.5553711],[35.4856818,49.5720132],[35.433372,49.6734492],[35.2436622,49.6935165],[35.2193739,49.829652],[34.859465,49.9496284],[34.9403583,50.1521815]]]},"properties":{"@location_uid":19,"@id":"relation/91294","ISO3166-2":"UA-53","admin_level":"4","boundary":"administrative","flag":"http://upload.wikimedia.org/wikipedia/commons/d/d3/Flag_of_Poltava_Oblast.svg","katotth":"UA53000000000028050","koatuu":"5300000000","name":"Полтавська область","name:ar":"بولتافا أوبلاست","name:az":"Poltava vilayəti","name:be":"Палтаўская вобласць","name:be-tarask":"Палтаўская вобласьць","name:bg":"Полтавска област","name:ca":"Província de Poltava","name:crh":"Poltava vilâyeti","name:cs":"Poltavská oblast","name:cv":"Полтава облаçĕ","name:de":"Oblast Poltawa","name:en":"Poltava Oblast","name:eo":"Poltava provinco","name:es":"Óblast de Poltava","name:et":"Poltava oblast","name:eu":"Poltavako oblasta","name:fa":"استان پولتاوا","name:fi":"Pultavan alue","name:fr":"Oblast de Poltava","name:gl":"Oblast de Poltava","name:hr":"Poltavska oblast","name:hu":"Poltavai terület","name:hy":"Պոլտավայի մարզ","name:id":"Oblast Poltava","name:it":"Oblast' di Poltava","name:ja":"ポルタヴァ州","name:ka":"პოლტავის ოლქი","name:ko":"폴타바 주","name:lt":"Poltavos sritis","name:lv":"Poltavas apgabals","name:mk":"Полтавска област","name:mr":"पोल्ताव्हा ओब्लास्त","name:nan":"Poltava séng","name:nl":"Oblast Poltava","name:nn":"Poltava oblast","name:no":"Poltava oblast","name:pl":"Obwód połtawski","name:pnb":"پولتاوا اوبلاست","name:pt":"Oblast de Poltava","name:ro":"Regiunea Poltava","name:ru":"Полтавская область","name:rue":"Полтавска область","name:sco":"Poltava Oblast","name:sh":"Poltavska oblast","name:sk":"Poltavská oblasť","name:sr":"Полтавска област","name:sv":"Poltava oblast","name:tr":"Poltava Oblastı","name:uk":"Полтавська область","name:vi":"Poltava (tỉnh)","name:war":"Poltava Oblast","name:xmf":"პოლტავაშ ოლქი","name:zh":"波尔塔瓦州","name:zh-Hant":"波爾塔瓦州","place":"state","ref":"ПОЛ","ref:en":"POL","timezone":"Europe/Kyiv","type":"boundary","wikidata":"Q169501","wikipedia":"uk:Полтавська область"},"id":"relation/91294"},
{"type":"Feature","geometry":{"type":"Polygon","coordinates":[[[36.5847724,47.8473971],[36.5419522,47.9060131],[36.6402445,47.9203042],[36.5801446,48.0794222],[36.8545286,48.0346107],[36.8727082,48.1841687],[36.9368344,48.1940214],[36.9120401,48.3091419],[36.8087751,48.3478964],[36.9015433,48.5433428],[36.7389079,48.6259487],[36.5906985,48.6027629],[36.482913,48.6636476],[36.2962497,48.531178],[36.2826748,48.6592397],[36.1430402,48.7243035],[35.9399698,48.9990133],[35.8074365,48.9271799],[35.4855021,48.9725939],[35.1902869,49.110238],[35.1879168,49.1626413],[35.0178946,49.1507738],[34.8466,49.1912571],[34.5582025,49.0554068],[34.4019662,49.0936058],[34.2949835,48.7234598],[33.8943109,48.9019481],[33.8509542,48.7708127],[33.5831319,48.7969551],[33.6187843,48.7275595],[33.8052421,48.6837603],[33.7435559,48.6150433],[33.4724917,48.5449163],[33.460723,48.3530078],[33.5459884,48.2348788],[33.291361,48.149523],[33.2933922,48.101973],[33.2127238,48.1698789],[33.225023,48.0921816],[33.004483,47.9890748],[33.0041257,47.9132389],[33.0783706,47.9204573],[33.0720927,47.7389395],[32.9722994,47.7226695],[32.9595839,47.5931072],[33.0926838,47.5788322],[33.2334173,47.5773653],[33.3142543,47.4825445],[33.5803214,47.600194],[33.6436096,47.4845268],[34.1394646,47.4772499],[34.572379,47.5616158],[34.9580347,47.538279],[34.9574977,47.7695877],[34.8936183,47.7602236],[34.8972316,47.8528148],[34.8019738,47.915638],[34.9190894,47.9334607],[34.8551126,48.133049],[34.9902585,48.0891896],[35.2950206,48.1443499],[35.5241386,48.0746014],[35.7034121,48.1402147],[35.8168631,48.0661227],[36.0524844,48.0590719],[36.1301856,47.8903331],[36.0736508,47.8488326],[36.5847724,47.8473971]]]},"properties":{"@location_uid":9,"@id":"relation/101746","ISO3166-2":"UA-12","admin_level":"4","boundary":"administrative","flag":"http://upload.wikimedia.org/wikipedia/commons/c/cf/Flag_of_Dnipropetrovsk_Oblast.svg","katotth":"UA12000000000090473","koatuu":"1200000000","name":"Дніпропетровська область","name:ar":"دنيبروبتروفسك أوبلاست","name:az":"Dnepropetrovsk vilayəti","name:be":"Днепрапятроўская вобласць","name:be-tarask":"Днепрапятроўская вобласьць","name:bg":"Днепропетровска област","name:ca":"Província de Dnipropetrovsk","name:crh":"Dnipropetrovsk vilâyeti","name:cs":"Dněpropetrovská oblast","name:cv":"Днепропетровск облаçĕ","name:de":"Oblast Dnipropetrowsk","name:en":"Dnipropetrovsk Oblast","name:eo":"Dnipropetrovska provinco","name:es":"Óblast de Dnipropetrovsk","name:et":"Dnipropetrovski oblast","name:eu":"Dnipropetrovskeko oblasta","name:fa":"استان دنیپروپتروفسک","name:fi":"Dnepropetrovskin alue","name:fr":"Oblast de Dnipropetrovsk","name:hr":"Dnjipropetrovska oblast","name:hu":"Dnyipropetrovszki terület","name:hy":"Դնեպրոպետրովսկի մարզ","name:id":"Oblast Dnipropetrovsk","name:it":"Oblast' di Dnipropetrovs'k","name:ja":"ドニプロペトロウシク州","name:ka":"დნეპროპეტროვსკის ოლქი","name:ko":"드니프로페트로우시크 주","name:lt":"Dniepropetrovsko sritis","name:lv":"Dņepropetrovskas apgabals","name:mk":"Днепропетровска област","name:mr":"द्नेप्रोपेत्रोव्स्क ओब्लास्त","name:nan":"Dnipropetrovsk séng","name:nl":"Oblast Dnjepropetrovsk","name:nn":"Dnipropetrovsk oblast","name:no":"Dnipropetrovsk oblast","name:pl":"Obwód dniepropetrowski","name:pnb":"دنیپروپترووسک اوبلاست","name:pt":"Oblast de Dnipropetrovsk","name:ro":"Regiunea Dniepropetrovsk","name:ru":"Днепропетровская область","name:rue":"Днїпропетровска область","name:sco":"Dnipropetrovsk Oblast","name:sh":"Dnjipropetrovska oblast","name:sk":"Dnepropetrovská oblasť","name:sr":"Дњепропетровска област","name:sv":"Dnipropetrovsk oblast","name:szl":"Dńepropetrowski uobwůd","name:tr":"Dnipropetrovsk Oblastı","name:uk":"Дніпропетровська область","name:vi":"Dnipropetrovsk (tỉnh)","name:war":"Dnipropetrovsk Oblast","name:xmf":"დნეპროპეტროვსკიშ ოლქი","name:zh":"第聂伯罗彼得罗夫斯克州","place":"state","population":"3261974","ref":"ДНП","ref:en":"DNP","timezone":"Europe/Kyiv","type":"boundary","wikidata":"Q170672","wikipedia":"uk:Дніпропетровська область"},"id":"relation/101746"},
{"type":"Feature","geometry":{"type":"Polygon","coordinates":[[[33.004483,47.9890748],[33.225023,48.0921816],[33.2127238,48.1698789],[33.2933922,48.101973],[33.291361,48.149523],[33.5459884,48.2348788],[33.460723,48.3530078],[33.4724917,48.5449163],[33.7435559,48.6150433],[33.8052421,48.6837603],[33.6187843,48.7275595],[33.5831319,48.7969551],[33.8509542,48.7708127],[33.8943109,48.9019481],[33.6651085,48.9784797],[33.5751592,48.9110338],[33.3196157,48.9490147],[33.2618352,49.1529212],[33.1998675,49.0736036],[33.1019995,49.1852126],[32.8591216,49.2447143],[32.757271,49.1668461],[32.8904096,49.1265557],[32.8144669,49.0753207],[32.8454602,48.980692],[32.5215471,48.9388939],[32.4757196,49.0335256],[32.2826144,49.0845548],[32.1460206,48.9122758],[31.9212745,48.8801156],[31.8052944,48.9496396],[31.5817229,48.9126803],[31.5588747,48.8286888],[31.3812934,48.7277501],[30.6981482,48.7673974],[30.5759081,48.7207106],[30.5665508,48.5672257],[30.4029125,48.573874],[30.1137383,48.4521495],[29.9677782,48.4715271],[29.7864111,48.3694983],[29.7807188,48.208462],[29.9910033,48.2301597],[30.0677888,48.1451978],[30.3083451,48.1419575],[30.7167351,48.1955866],[30.9004736,48.1593688],[31.0527322,48.2322044],[31.1641423,48.2224938],[31.2364712,48.1169589],[31.4868521,48.1295906],[31.4925401,48.0502899],[31.6340116,48.1348427],[31.7673464,48.1021392],[31.7527849,47.9437813],[31.8439389,47.9636924],[31.8766678,47.9194892],[31.8376686,47.7830536],[32.0548786,47.8173152],[32.1402589,47.7488944],[32.248037,47.816465],[32.6575792,47.8195987],[32.6517763,47.9214869],[32.7455728,47.932722],[32.6890579,47.9825853],[32.8941148,47.9857122],[32.8702838,48.0319424],[32.9892162,48.0484699],[33.004483,47.9890748]]]},"properties":{"@location_uid":15,"@id":"relation/101859","ISO3166-2":"UA-35","admin_level":"4","boundary":"administrative","flag":"http://upload.wikimedia.org/wikipedia/commons/0/09/Flag_of_Kirovohrad_Oblast.svg","katotth":"UA35000000000016081","koatuu":"3500000000","name":"Кіровоградська область","name:ar":"كيروفوهراد أوبلاست","name:be":"Кіраваградская вобласць","name:be-tarask":"Кіраваградзкая вобласьць","name:bg":"Кировоградска област","name:ca":"Província de Kirovohrad","name:crh":"Kirovograd vilâyeti","name:cs":"Kirovohradská oblast","name:de":"Oblast Kirowohrad","name:en":"Kirovohrad Oblast","name:eo":"Kirovohrada provinco","name:es":"Óblast de Kirovogrado","name:et":"Kirovohradi oblast","name:eu":"Kirovohradeko oblasta","name:fa":"استان کیرووهراد","name:fi":"Kirovohradin alue","name:fr":"Oblast de Kirovohrad","name:hr":"Kirovogradska oblast","name:hu":"Kirovohradi terület","name:hy":"Կիրովոգրադի մարզ","name:id":"Oblast Kirovohrad","name:it":"Oblast' di Kirovohrad","name:ja":"キロヴォフラード州","name:ka":"კიროვოგრადის ოლქი","name:ko":"키로보흐라드 주","name:lt":"Kirovohrado sritis","name:lv":"Kirovogradas apgabals","name:mk":"Кировоградска област","name:mr":"किरोव्होराद ओब्लास्त","name:nan":"Kirovograd séng","name:nl":"Oblast Kirovohrad","name:nn":"Kirovohrad oblast","name:no":"Kirovohrad oblast","name:pl":"Obwód kirowohradzki","name:pnb":"کیرووہراد اوبلاست","name:pt":"Oblast de Kirovogrado","name:ro":"Regiunea Kirovohrad","name:ru":"Кировоградская область","name:rue":"Кіровоградьска область","name:sco":"Kirovohrad Oblast","name:sh":"Kirovogradska oblast","name:sk":"Kirovohradská oblasť","name:sr":"Кировоградска област","name:sv":"Kirovohrad oblast","name:tr":"Kirovograd Oblastı","name:uk":"Кіровоградська область","name:vi":"Kirovohrad (tỉnh)","name:war":"Kirovohrad Oblast","name:zh":"基洛夫格勒州","place":"state","ref":"КІР","ref:en":"KIR","timezone":"Europe/Kyiv","type":"boundary","wikidata":"Q180981","wikipedia":"uk:Кіровоградська область"},"id":"relation/101859"},
{"type":"Feature","geometry":{"type":"Polygon","coordinates":[[[30.3683029,50.4225715],[30.6435516,50.2260905],[30.6113333,50.3464106],[30.8187002,50.3943757],[30.7376052,50.498925],[30.8158409,50.5639723],[30.719819,50.5908142],[30.5656585,50.5157585],[30.4631088,50.5843452],[30.3072295,50.5704924],[30.2361453,50.4268097],[30.3683029,50.4225715]]]},"properties":{"@location_uid":31,"@id":"relation/421866","ISO3166-2":"UA-30","admin_level":"4","alt_name:af":"Kief","alt_name:an":"Kiev","alt_name:ca":"Kiev","alt_name:de":"Kyjiw","alt_name:en":"Kiev","alt_name:eo":"Kievo","alt_name:es":"Kyiv","alt_name:et":"Kojiv","alt_name:hr":"Kijiv","alt_name:it":"Kyiv","alt_name:ko":"키이우","alt_name:nl":"Kyiv","alt_name:sv":"Kyiv","alt_name:tr":"Kyiv","alt_name:vi":"Kiev","alt_name:vo":"Kiev","boundary":"administrative","flag":"http://upload.wikimedia.org/wikipedia/commons/3/35/Flag_of_Kyiv_Kurovskyi.svg","int_name":"Kyiv","katotth":"UA80000000000093317","koatuu":"8000000000","name":"Київ","name:ab":"Кыив","name:af":"Kyiv","name:an":"Kyiv","name:ast":"Kiev","name:bar":"Kiew","name:be":"Кіеў","name:be-tarask":"Кіеў","name:br":"Kyyiv","name:ca":"Kiiv","name:cs":"Kyjev","name:de":"Kiew","name:en":"Kyiv","name:eo":"Kijivo","name:es":"Kiev","name:et":"Kojiv","name:fi":"Kiova","name:fr":"Kyiv","name:fy":"Kiev","name:hr":"Kijev","name:ia":"Kiev","name:io":"Kyiv","name:it":"Kiev","name:jbo":"kiev","name:kaa":"Kiev","name:ko":"키예프","name:la":"Kiovia","name:lv":"Kijiva","name:mk":"Кијив","name:nl":"Kiev","name:no":"Kyiv","name:pl":"Kijow","name:pt":"Kiev","name:ro":"Kiev","name:ru":"Киев","name:sk":"Kyjev","name:sl":"Kijev","name:sv":"Kiev","name:szl":"Kijuw","name:tr":"Kıyiv","name:tzl":"Kiiv","name:uk":"Київ","name:vi":"Kyiv","name:vo":"Kuyiv","name:zh":"基辅","name:zh-Hans":"基辅","name:zh-Hant":"基輔","official_name:de":"Kyjiw","place":"city","population":"2908249","source:name:br":"ofis publik ar brezhoneg","timezone":"Europe/Kyiv","type":"boundary","wikidata":"Q1899","wikipedia":"uk:Київ"},"id":"relation/421866"},
{"type":"Feature","geometry":{"type":"Polygon","coordinates":[[[33.696591,44.1910397],[33.7617836,44.3893566],[33.9262025,44.4213251],[33.8971535,44.4787873],[33.7162703,44.6204383],[33.7769711,44.690265],[33.6161203,44.711976],[33.6772085,44.7861542],[33.2951871,44.9405202],[33.2462933,44.763327],[33.1057654,44.645082],[33.1103056,44.5059764],[33.2953982,44.3348338],[33.696591,44.1910397]]]},"properties":{"@location_uid":30,"@id":"relation/1574364","ISO3166-2":"UA-40","addr:country":"UA","admin_level":"4","boundary":"administrative","int_name":"Sevastopol","is_in:country":"Ukraine","is_in:country_code":"UA","katotth":"UA85000000000065278","koatuu":"8500000000","name":"Севастополь","name:be":"Севастопаль","name:be-tarask":"Севастопаль","name:ca":"Sebastòpol","name:crh":"Aqyar","name:cs":"Sevastopol","name:de":"Sewastopol","name:el":"Σεβαστούπολη","name:en":"Sevastopol","name:eo":"Sebastopolo","name:es":"Sebastopol","name:fr":"Sébastopol","name:hr":"Sevastopolj","name:hu":"Szevasztopol","name:it":"Sebastopoli","name:ko":"세바스토폴","name:la":"Sebastopolis","name:lt":"Sevastopolis","name:lv":"Sevastopole","name:nl":"Sebastopol","name:pl":"Sewastopol","name:pt":"Sebastopol","name:ro":"Sevastopol","name:ru":"Севастополь","name:sk":"Sevastopoľ","name:tr":"Sivastopol","name:uk":"Севастополь","name:zh":"塞瓦斯托波尔","name:zh-Hans":"塞瓦斯托波尔","name:zh-Hant":"塞瓦斯托波爾","note":"claimed administrative unit of Ukraine - not to be confused with administrative unit of Russia","official_status":"uk:містo зі спеціальним статусом","place":"city","ref:uk":"СВС","timezone":"Europe/Simferopol","type":"boundary","wikidata":"Q2659239","wikipedia":"uk:Севастопольська міська рада"},"id":"relation/1574364"}
]}
